name,address,city,state,stars,phone,wifiScore,outdoorSeating,liveMusic,outlets,veganMilk,food,popularItem,IMG,website
Any Given Sundae,2612 Brandt School Rd,Wexford,PA,5,(790) 1974222,3.92,1,0,0,1,0,Peppermint Mocha,http://dummyimage.com/189x151.jpg/5fa2dd/ffffff,https://a8.net/tincidunt/eu/felis/fusce.js
DAVIDsTEA,10 Dundas Street E,Toronto,ON,4,(191) 1328148,3.74,1,0,1,1,0,Peppermint Mocha,http://dummyimage.com/240x211.jpg/dddddd/000000,http://blinklist.com/quisque/arcu/libero/rutrum/ac.aspx
Bampot House of Tea & Board Games,201 Harbord Street,Toronto,ON,4,(696) 2117091,3.37,1,0,1,0,1,Nitro Cold Brew,http://dummyimage.com/241x244.jpg/cc0000/ffffff,https://mit.edu/ultrices/posuere/cubilia.aspx
Koko Bakery,3710 Payne Ave,Cleveland,OH,4,(413) 4526234,2.01,1,0,0,0,1,Chai Tea Latte,http://dummyimage.com/202x235.png/dddddd/000000,https://mapy.cz/justo.html
Hestia,"733 Rue Cathcart, Suite 6",Montreal,QC,4.5,(123) 8059729,1.49,0,0,0,1,0,Nitro Cold Brew,http://dummyimage.com/183x113.png/dddddd/000000,http://tuttocitta.it/aenean.js
Teavana,"3200 Las Vegas Blvd S, Ste 1795",Las Vegas,NV,3.5,(156) 2822839,2.66,1,1,1,0,0,Vanilla Cappuccino,http://dummyimage.com/137x191.png/cc0000/ffffff,http://wufoo.com/purus.jsp
Dunkin Donuts,16131 Lancaster Hwy,Charlotte,NC,2.5,(434) 5998271,1.28,1,0,1,1,1,Nitro Cold Brew,http://dummyimage.com/224x144.bmp/dddddd/000000,https://theatlantic.com/nonummy/integer/non/velit/donec/diam/neque.png
Coffee Culture,10037 Keele Street,Vaughan,ON,3.5,(563) 7433033,2.75,1,0,0,0,1,Peppermint Mocha,http://dummyimage.com/159x187.jpg/cc0000/ffffff,https://mac.com/in/faucibus.png
Bubble Tea and Me,"7330 Yonge Street, Suite 107",Thornhill,ON,3.5,(294) 7589382,4.92,0,0,0,1,0,Vanilla Cappuccino,http://dummyimage.com/133x208.bmp/5fa2dd/ffffff,http://bloomberg.com/lacus/purus/aliquet/at/feugiat/non/pretium.jsp
Urban Boba Tea House,"2470 W Happy Valley Rd, Ste 1183",Phoenix,AZ,4,(688) 9243689,1.02,1,0,1,1,1,Peppermint Mocha,http://dummyimage.com/125x152.jpg/cc0000/ffffff,http://soundcloud.com/sapien/placerat.json
Donut Counter,3337 Avenue Bayview,North York,ON,4,(279) 9639378,2.52,1,0,1,1,0,Nitro Cold Brew,http://dummyimage.com/153x198.jpg/ff4444/ffffff,http://timesonline.co.uk/fusce/congue/diam/id.json
Hula Girl Espresso,456 Ossington Avenue,Toronto,ON,4,(722) 3820076,2.65,0,0,1,0,1,Nitro Cold Brew,http://dummyimage.com/163x128.png/dddddd/000000,http://myspace.com/turpis/donec/posuere/metus.xml
Frozen Creamery,"744 W Ray Rd, Ste 103",Gilbert,AZ,4,(186) 6849662,4.18,0,0,1,1,0,Chai Tea Latte,http://dummyimage.com/172x144.jpg/ff4444/ffffff,http://freewebs.com/nullam/porttitor/lacus/at/turpis.png
Dunkin Donuts,"3027 Graham Rd, Ste 4",Stow,OH,1,(735) 3095137,1.77,0,1,1,1,1,Peppermint Mocha,http://dummyimage.com/107x238.bmp/dddddd/000000,http://moonfruit.com/enim/leo/rhoncus/sed/vestibulum.html
Second Cup,895 Rue De La Gauchetiere E,Montreal,QC,3,(462) 4081869,4.48,1,0,1,0,1,Vanilla Cappuccino,http://dummyimage.com/122x156.jpg/5fa2dd/ffffff,http://addtoany.com/at/nibh/in.xml
Le Fouvrac,"1404, rue Fleury Est",Montreal,QC,5,(966) 9689552,2.02,1,1,1,1,1,Nitro Cold Brew,http://dummyimage.com/167x166.png/5fa2dd/ffffff,http://bloglines.com/mauris/vulputate/elementum.json
Cafe Merlin,Augustenstr. 72,Stuttgart,BW,4,(477) 7087719,2.23,1,1,0,1,0,Chai Tea Latte,http://dummyimage.com/240x159.bmp/ff4444/ffffff,http://utexas.edu/eu/interdum/eu/tincidunt.html
Coffee Bean Cafe,15400 Hurontario Street,Inglewood,ON,3.5,(446) 7887287,4.11,0,1,1,0,0,Chai Tea Latte,http://dummyimage.com/218x107.jpg/dddddd/000000,http://sogou.com/lacus/purus/aliquet.jsp
Ora Mangiamo,"780 Kingston Road, Unit 8",Pickering,ON,5,(925) 4889566,2.17,1,0,1,0,1,Vanilla Cappuccino,http://dummyimage.com/212x107.bmp/dddddd/000000,http://cdc.gov/duis/consequat/dui/nec/nisi/volutpat/eleifend.xml
Goed Eten,188 Ossington Avenue,Toronto,ON,3,(783) 8746289,4.35,1,0,0,1,0,Vanilla Cappuccino,http://dummyimage.com/249x244.jpg/dddddd/000000,http://github.io/posuere/cubilia/curae/nulla/dapibus/dolor.xml
Icha Tea,"235 Spadina Avenue, Unit 4",Toronto,ON,4.5,(432) 5010768,1.2,1,1,1,1,0,Chai Tea Latte,http://dummyimage.com/111x149.bmp/dddddd/000000,https://scientificamerican.com/amet/sem/fusce.png
Starbucks,735 S Green Valley Pkwy,Henderson,NV,3.5,(392) 7074456,1.51,0,1,1,1,0,Chai Tea Latte,http://dummyimage.com/227x225.jpg/5fa2dd/ffffff,http://tuttocitta.it/odio/odio/elementum/eu/interdum/eu.png
Starbucks,6365 S Rainbow Blvd,Las Vegas,NV,3.5,(446) 3078227,3.38,0,0,0,1,1,Vanilla Cappuccino,http://dummyimage.com/179x142.jpg/cc0000/ffffff,http://amazon.co.jp/est/lacinia/nisi/venenatis/tristique/fusce/congue.png
Waterbean Coffee,"9705 Sam Furr Rd, Ste A",Huntersville,NC,4.5,(807) 9082997,4.35,1,0,1,1,0,Vanilla Cappuccino,http://dummyimage.com/150x177.bmp/5fa2dd/ffffff,http://cbsnews.com/id.png
Krispy Kreme Doughnuts,7015 W Spring Mountain Rd,Las Vegas,NV,3,(675) 4160607,4.62,0,1,0,1,1,Peppermint Mocha,http://dummyimage.com/155x127.png/5fa2dd/ffffff,http://woothemes.com/hac/habitasse.jsp
Le Neuf Cafe,9 Clarence Square,Toronto,ON,3.5,(832) 3722886,2.56,0,0,0,0,0,Vanilla Cappuccino,http://dummyimage.com/161x178.png/cc0000/ffffff,http://rakuten.co.jp/metus/aenean/fermentum/donec/ut.aspx
Starbucks,"2001 E Lake Mead Blvd, Ste 105",North Las Vegas,NV,3.5,(742) 2275563,2.44,1,1,1,1,1,Vanilla Cappuccino,http://dummyimage.com/176x239.bmp/5fa2dd/ffffff,http://mediafire.com/hac/habitasse/platea/dictumst.xml
Starbucks,7077 Bathurst Street,Thornhill,ON,3.5,(513) 3587732,1.2,0,1,0,1,0,Chai Tea Latte,http://dummyimage.com/217x217.png/cc0000/ffffff,https://epa.gov/odio/elementum/eu/interdum/eu/tincidunt.html
Tim Hortons,799 Dundas Street E,Mississauga,ON,3,(630) 1990930,2.67,0,0,0,1,0,Vanilla Cappuccino,http://dummyimage.com/155x196.bmp/ff4444/ffffff,https://alibaba.com/hac/habitasse/platea/dictumst/morbi/vestibulum/velit.html
T By Daniel,46 Main Street N,Brampton,ON,5,(910) 2675192,2.48,1,1,1,0,0,Nitro Cold Brew,http://dummyimage.com/219x250.bmp/cc0000/ffffff,http://jigsy.com/luctus/tincidunt/nulla/mollis/molestie/lorem/quisque.aspx
Sonic,60 Cecil Street,Toronto,ON,4,(363) 2157924,4.82,0,1,0,1,0,Nitro Cold Brew,http://dummyimage.com/240x151.jpg/cc0000/ffffff,http://xing.com/eget/congue/eget/semper/rutrum/nulla/nunc.jpg
Duo Patisserie & Cafe,"230 Commerce Valley Drive E, Unit 4",Markham,ON,4.5,(782) 6828873,4.4,0,1,1,1,0,Vanilla Cappuccino,http://dummyimage.com/246x132.png/dddddd/000000,http://yahoo.co.jp/quam/sapien/varius/ut/blandit/non.jpg
Teavana,1800 sheppard Avenue,Toronto,ON,2,(192) 8554412,2.14,1,1,0,1,1,Nitro Cold Brew,http://dummyimage.com/200x128.png/5fa2dd/ffffff,http://mozilla.com/tortor.json
Waffles Cafe,"6446 N Durango Dr, Ste 150",Las Vegas,NV,4,(245) 7963825,1.23,1,0,1,0,0,Chai Tea Latte,http://dummyimage.com/154x147.png/ff4444/ffffff,https://chicagotribune.com/vel/lectus/in/quam/fringilla/rhoncus/mauris.html
Presse Cafe,"1794 Avenue Pierre-Peladeau, Suite G07",Laval,QC,2.5,(621) 3055478,2.01,1,1,1,0,1,Vanilla Cappuccino,http://dummyimage.com/207x182.jpg/ff4444/ffffff,http://miibeian.gov.cn/cras.xml
Hinckley Coffee & Donuts,1388 Ridge Rd,Hinckley,OH,5,(877) 6977626,1.62,0,1,0,0,0,Peppermint Mocha,http://dummyimage.com/215x182.jpg/5fa2dd/ffffff,http://indiegogo.com/montes/nascetur/ridiculus.jpg
Dunkin Donuts,2267 Spider Dr NE,Kannapolis,NC,2.5,(421) 9759684,3.14,1,0,1,1,1,Nitro Cold Brew,http://dummyimage.com/206x208.jpg/5fa2dd/ffffff,http://live.com/sed/sagittis/nam/congue/risus/semper.jpg
The Shmooz,590 Pape Avenue,Toronto,ON,4.5,(758) 7950643,1.73,1,0,1,1,1,Peppermint Mocha,http://dummyimage.com/248x238.bmp/5fa2dd/ffffff,http://odnoklassniki.ru/vestibulum/ante/ipsum/primis.html
Zoom Espresso,4041 N Central Ave,Phoenix,AZ,3,(579) 1701550,2.77,1,0,0,1,0,Vanilla Cappuccino,http://dummyimage.com/149x127.png/ff4444/ffffff,http://soundcloud.com/quam/sollicitudin/vitae/consectetuer/eget.js
Central Coffee Shop,1001 New Beginnings Dr,Henderson,NV,4.5,(295) 4812115,3.7,0,1,0,0,1,Peppermint Mocha,http://dummyimage.com/246x225.bmp/5fa2dd/ffffff,https://printfriendly.com/lorem.jpg
Starbucks,"6807 E Baseline Rd, Ste 101",Mesa,AZ,3,(905) 6565123,2.06,0,0,0,0,0,Vanilla Cappuccino,http://dummyimage.com/183x245.jpg/5fa2dd/ffffff,https://de.vu/consequat/morbi/a/ipsum/integer/a.html
Caf e Myriade,4627 Rue Saint-Denis,Montreal,QC,4.5,(582) 6074389,1.67,0,0,1,0,1,Nitro Cold Brew,http://dummyimage.com/232x209.png/ff4444/ffffff,http://deliciousdays.com/suscipit/a/feugiat/et.js
Eiscaf e Venedig,Königstr. 66,Stuttgart,BW,2.5,(448) 8068191,4.52,1,0,1,1,1,Nitro Cold Brew,http://dummyimage.com/205x106.jpg/5fa2dd/ffffff,https://squarespace.com/tincidunt.jpg
Piecebox,2 Polwarth Crescent,Edinburgh,EDH,4,(402) 1807673,1.55,0,1,1,0,0,Peppermint Mocha,http://dummyimage.com/249x138.bmp/ff4444/ffffff,http://hc360.com/cras/in/purus/eu/magna.jpg
Garfunkels Restaurants,"130 High Street, Old Town",Edinburgh,EDH,3,(172) 2584428,1.51,1,0,1,0,1,Vanilla Cappuccino,http://dummyimage.com/132x148.png/dddddd/000000,http://china.com.cn/elit/ac/nulla/sed/vel/enim.aspx
Tim Hortons,4504 London Line,Lambton,ON,2,(450) 3595085,3.5,0,0,0,0,1,Chai Tea Latte,http://dummyimage.com/100x149.jpg/dddddd/000000,http://paginegialle.it/montes/nascetur.js
Dunkin Donuts,15800 Snow Rd,Brook Park,OH,3.5,(627) 8884564,2.37,1,0,0,1,1,Vanilla Cappuccino,http://dummyimage.com/149x168.png/ff4444/ffffff,https://gov.uk/cras/pellentesque/volutpat/dui.jsp
WhereUBean Coffee,"4804 E Chandler Blvd, Ste 110",Phoenix,AZ,4.5,(212) 7476547,4.91,1,1,1,1,1,Chai Tea Latte,http://dummyimage.com/120x136.png/5fa2dd/ffffff,https://marketwatch.com/eu/orci.jpg
Burr & Co,20 George Street,Edinburgh,EDH,3.5,(540) 2001618,4.11,0,0,0,0,0,Chai Tea Latte,http://dummyimage.com/166x246.png/cc0000/ffffff,https://mayoclinic.com/felis/eu/sapien/cursus/vestibulum/proin/eu.png
Sharetea,"15 Northtown Way, Unit 22",Toronto,ON,4,(133) 1430754,3.84,0,0,0,0,1,Vanilla Cappuccino,http://dummyimage.com/227x179.png/cc0000/ffffff,https://eventbrite.com/metus/arcu.html
Lauras Kitchen,33 William Street,Edinburgh,EDH,4.5,(356) 6566327,2.82,1,0,1,1,0,Vanilla Cappuccino,http://dummyimage.com/157x226.png/cc0000/ffffff,http://ed.gov/hac/habitasse/platea/dictumst.json
Dak Lak Vietnamese Coffee,"4300 Steeles Avenue E, Unit C2-208, 2nd Floor",Markham,ON,4,(912) 6929740,2.14,1,0,1,1,1,Chai Tea Latte,http://dummyimage.com/133x231.png/cc0000/ffffff,https://sun.com/nulla/integer/pede/justo/lacinia/eget/tincidunt.json
G For Gelato and Pizza Bar,75 Jarvis Street,Toronto,ON,4,(454) 6570326,1.56,1,0,0,1,0,Vanilla Cappuccino,http://dummyimage.com/195x114.bmp/5fa2dd/ffffff,https://hp.com/nec/molestie/sed.png
Nestle Toll House Cafe by Chip,"6800 N 95th Ave, Ste 760",Glendale,AZ,2.5,(183) 7454114,4.48,1,1,0,1,0,Peppermint Mocha,http://dummyimage.com/129x180.bmp/dddddd/000000,https://china.com.cn/ligula/in/lacus/curabitur/at.jsp
Crazy Mocha,417 Walnut St,Sewickley,PA,4.5,(884) 2939756,4.52,1,0,1,0,1,Peppermint Mocha,http://dummyimage.com/200x205.jpg/dddddd/000000,http://furl.net/sit.html
Starbucks,2048 E Baseline Rd,Mesa,AZ,2.5,(621) 3684734,2.58,0,1,0,1,0,Nitro Cold Brew,http://dummyimage.com/103x166.bmp/cc0000/ffffff,https://eepurl.com/integer.xml
Starbucks,1845 E Baseline Rd,Gilbert,AZ,2.5,(952) 8534746,4.59,0,1,1,1,1,Chai Tea Latte,http://dummyimage.com/178x152.jpg/ff4444/ffffff,http://twitter.com/id/nisl/venenatis/lacinia/aenean.xml
Espresso Royale,1402 W Gregory Dr,Urbana,IL,2,(659) 1150177,1.07,0,1,1,1,0,Peppermint Mocha,http://dummyimage.com/150x194.jpg/ff4444/ffffff,https://pcworld.com/orci/mauris/lacinia/sapien/quis/libero.json
destiny,"633 Silver Star Blvd, #115",Scarborough,ON,3,(598) 2518474,1.65,0,0,1,1,0,Peppermint Mocha,http://dummyimage.com/223x140.jpg/dddddd/000000,https://ed.gov/proin/at/turpis/a/pede/posuere/nonummy.xml
Starbucks,6801 Northlake Mall Dr,Charlotte,NC,3.5,(656) 7321762,1.13,0,1,0,0,0,Vanilla Cappuccino,http://dummyimage.com/211x129.jpg/cc0000/ffffff,https://fema.gov/ligula/sit/amet/eleifend/pede.aspx
Les Intraitables,150 Rue Notre-Dame Est,Montreal,QC,4,(329) 1698576,1.11,1,0,1,1,1,Peppermint Mocha,http://dummyimage.com/133x148.bmp/cc0000/ffffff,http://ask.com/odio/elementum/eu/interdum.jpg
Starbucks,3143 Yonge Street,Toronto,ON,3.5,(230) 2080590,1.41,1,0,1,0,0,Nitro Cold Brew,http://dummyimage.com/235x195.bmp/ff4444/ffffff,http://blogs.com/curae/nulla/dapibus/dolor.json
Dolce21 Dessert House,"4300 Steeles Avenue E, Unit B35A",Markham,ON,3,(270) 1535351,3.71,0,1,1,1,0,Nitro Cold Brew,http://dummyimage.com/232x212.png/cc0000/ffffff,https://printfriendly.com/congue.js
Dunkin Donuts,1601 W High St,Stowe,PA,1.5,(236) 4463531,4.83,0,0,0,1,1,Nitro Cold Brew,http://dummyimage.com/187x199.bmp/dddddd/000000,http://wired.com/in/faucibus.html
Fair Trade Coffee House,418 State St,Madison,WI,4,(510) 3891627,2.77,0,1,1,0,1,Vanilla Cappuccino,http://dummyimage.com/210x246.bmp/cc0000/ffffff,http://unesco.org/quam/a/odio.jpg
Cafe Uno,55 Mill St,Toronto,ON,2.5,(311) 1442883,2.23,1,1,1,0,0,Chai Tea Latte,http://dummyimage.com/186x112.png/5fa2dd/ffffff,http://ustream.tv/quisque/id/justo.jpg
Cafe Novo,1986 Bloor Street W,Toronto,ON,3.5,(299) 8533553,4.61,0,0,0,1,1,Peppermint Mocha,http://dummyimage.com/112x200.bmp/cc0000/ffffff,https://blogger.com/quam/sollicitudin/vitae/consectetuer/eget/rutrum.jpg
Moon Bean Coffee Company,30 St. Andrew Street,Toronto,ON,4,(649) 5904327,4.27,1,0,1,0,1,Nitro Cold Brew,http://dummyimage.com/170x109.png/cc0000/ffffff,http://wunderground.com/sed/accumsan/felis.aspx
Maison M etivier,131 Prince Arthur E,Montreal,QC,4.5,(788) 8937531,4.55,0,1,1,0,1,Chai Tea Latte,http://dummyimage.com/180x144.png/ff4444/ffffff,http://eventbrite.com/volutpat/eleifend/donec/ut/dolor/morbi.xml
Manic Coffee,426 College St,Toronto,ON,3.5,(828) 8706040,4.4,0,0,0,0,1,Chai Tea Latte,http://dummyimage.com/212x108.jpg/cc0000/ffffff,http://dedecms.com/in.js
Caf e Maille,Wehrneckarstr. 13,Esslingen,BW,4,(715) 3350494,4.2,1,0,1,1,0,Chai Tea Latte,http://dummyimage.com/171x143.png/dddddd/000000,http://nymag.com/platea/dictumst/maecenas/ut/massa/quis.aspx
Life Cafe,121 Carnegie St,Henderson,NV,3.5,(387) 4269451,1.43,0,1,1,0,1,Peppermint Mocha,http://dummyimage.com/121x177.png/ff4444/ffffff,http://redcross.org/accumsan/tortor/quis/turpis.png
Starbucks,13855 Conlan Cir,Charlotte,NC,3,(323) 8431876,4.61,1,1,1,1,0,Chai Tea Latte,http://dummyimage.com/212x161.jpg/5fa2dd/ffffff,http://whitehouse.gov/sapien/in/sapien/iaculis/congue/vivamus/metus.jsp
French Connection Baguette House,206 High Street,Dudley,ABE,4.5,(967) 6914205,3.81,1,1,1,0,1,Vanilla Cappuccino,http://dummyimage.com/162x107.jpg/dddddd/000000,https://ox.ac.uk/consectetuer/adipiscing/elit/proin.jpg
Starbucks Coffee,28053 Chagrin Blvd,Woodmere,OH,3,(176) 6543092,4.71,0,1,1,1,0,Chai Tea Latte,http://dummyimage.com/200x162.bmp/ff4444/ffffff,https://baidu.com/at/vulputate/vitae/nisl/aenean/lectus/pellentesque.xml
Drip Coffee Lounge,2325 N 7th St,Phoenix,AZ,3.5,(680) 4532182,4.03,1,0,0,1,1,Peppermint Mocha,http://dummyimage.com/138x190.png/dddddd/000000,https://livejournal.com/curae/mauris/viverra/diam/vitae/quam/suspendisse.js
Faith Coffee And Sweets,5040 Hwy 49 S,Harrisburg,NC,4,(353) 8037946,2.21,1,0,0,1,0,Nitro Cold Brew,http://dummyimage.com/243x218.png/cc0000/ffffff,https://techcrunch.com/a/feugiat/et/eros/vestibulum.js
Marathon Donuts & Coffee Shop,"3300 Midland Ave, Unit 32",Toronto,ON,4,(580) 4791515,3.11,0,0,1,1,0,Chai Tea Latte,http://dummyimage.com/175x117.jpg/dddddd/000000,https://sun.com/eleifend.png
The Coffee House & Sweet Buttercupcakes,117 S Water St,Henderson,NV,4.5,(986) 9673868,3.48,1,1,0,1,0,Peppermint Mocha,http://dummyimage.com/169x202.bmp/dddddd/000000,http://cbc.ca/sollicitudin/vitae.png
Starbucks,"2345 Murray Ave, Ste 110",Pittsburgh,PA,4,(300) 4727855,4.54,0,0,1,1,1,Vanilla Cappuccino,http://dummyimage.com/130x172.jpg/dddddd/000000,http://quantcast.com/placerat.jsp
Cantuccio,Kirchheimer Str. 50,Stuttgart,BW,5,(783) 2953401,3.24,0,1,0,1,1,Peppermint Mocha,http://dummyimage.com/176x129.bmp/dddddd/000000,https://usa.gov/ante/ipsum/primis/in/faucibus/orci/luctus.html
Carbon Cafe,96 Spadina Ave,Toronto,ON,4,(886) 6215569,4.82,1,1,0,0,0,Nitro Cold Brew,http://dummyimage.com/132x131.png/5fa2dd/ffffff,http://psu.edu/mauris/enim/leo/rhoncus/sed/vestibulum.json
Starbucks,1900 Dundas Street W,Mississauga,ON,3.5,(834) 9785668,3.89,0,1,1,1,0,Chai Tea Latte,http://dummyimage.com/227x100.png/5fa2dd/ffffff,https://wunderground.com/in/hac/habitasse/platea/dictumst/maecenas/ut.jsp
Tim Hortons,85 Laird Drive,Toronto,ON,3.5,(421) 5790162,4.64,0,1,1,0,0,Chai Tea Latte,http://dummyimage.com/134x154.jpg/cc0000/ffffff,https://virginia.edu/nec/dui/luctus.json
Tim Hortons,3650 Derry Rd E,Mississauga,ON,2.5,(542) 7460023,1.16,1,1,0,1,0,Nitro Cold Brew,http://dummyimage.com/223x214.jpg/cc0000/ffffff,https://blogs.com/elementum/pellentesque/quisque/porta/volutpat/erat/quisque.js
Friendship Perk And Brew,300 S Pacific Ave,Pittsburgh,PA,4.5,(878) 7041825,1.33,1,0,1,1,0,Chai Tea Latte,http://dummyimage.com/125x152.png/5fa2dd/ffffff,http://github.io/scelerisque/mauris.json
Greenbridge Teahouse and Cafe,9036 Church St,Twinsburg,OH,4,(347) 6652929,3.14,0,0,1,1,1,Vanilla Cappuccino,http://dummyimage.com/201x120.bmp/ff4444/ffffff,http://comsenz.com/lacinia/nisi.aspx
Costa,"78 South Bridge, Edinburgh",Edinburgh,EDH,3.5,(611) 4883718,3.99,0,1,0,0,0,Peppermint Mocha,http://dummyimage.com/108x142.jpg/5fa2dd/ffffff,https://japanpost.jp/pede.xml
Einstein Bagel Caribou Coffee,90T H St And Shea Blvd,Scottsdale,AZ,1.5,(157) 4617468,4.81,0,0,1,1,0,Peppermint Mocha,http://dummyimage.com/116x160.png/5fa2dd/ffffff,http://mac.com/congue/eget/semper/rutrum.png
Starbucks,20 Innovation Drive,Vaughan,ON,3.5,(426) 9728548,3.21,1,0,1,1,0,Vanilla Cappuccino,http://dummyimage.com/200x178.jpg/cc0000/ffffff,http://house.gov/nulla/neque/libero/convallis/eget.js
Presse Cafe,1070 Boul Du Grand-Heron,Saint Jerome,QC,3.5,(971) 3771782,3.46,1,1,1,0,1,Vanilla Cappuccino,http://dummyimage.com/134x234.jpg/5fa2dd/ffffff,http://baidu.com/eros/viverra/eget/congue/eget/semper.jpg
Milk Bar Caf,5612 Avenue de Monkland,Montreal,QC,4.5,(299) 2665245,3.96,1,0,0,1,0,Vanilla Cappuccino,http://dummyimage.com/115x197.jpg/5fa2dd/ffffff,https://sciencedaily.com/tristique.json
Beans n Cream Coffee House,345 Cannery Sq,Sun Prairie,WI,4,(462) 5929115,3.53,1,0,1,0,1,Chai Tea Latte,http://dummyimage.com/147x151.jpg/dddddd/000000,https://bluehost.com/erat/quisque/erat.js
Starbucks,"434 Gammon Pl, Ste 3",Madison,WI,2.5,(637) 7826870,3.99,0,0,0,0,1,Peppermint Mocha,http://dummyimage.com/250x239.png/cc0000/ffffff,http://reuters.com/pede/ullamcorper.jsp
Tabu Coffee Company,1852 E 6th St,Cleveland,OH,5,(973) 5248318,1.57,1,1,1,1,0,Chai Tea Latte,http://dummyimage.com/115x171.jpg/ff4444/ffffff,https://pinterest.com/lorem/integer/tincidunt.html
Ncounter,"888 N 1st Ave, Ste 114",Phoenix,AZ,4,(160) 7953025,4.28,1,0,1,0,1,Chai Tea Latte,http://dummyimage.com/173x200.bmp/5fa2dd/ffffff,https://blogtalkradio.com/maecenas/rhoncus/aliquam.js
Chabichou,196 Borden Street,Toronto,ON,4,(272) 5667040,4.92,0,0,0,1,1,Peppermint Mocha,http://dummyimage.com/138x120.png/cc0000/ffffff,https://sohu.com/metus/vitae/ipsum/aliquam.xml
Bonnet & Sons,38-40 Huntriss Row,Scarborough,NYK,3.5,(993) 3422934,2.74,1,0,0,1,1,Vanilla Cappuccino,http://dummyimage.com/206x230.bmp/ff4444/ffffff,http://forbes.com/tincidunt/eu/felis/fusce/posuere/felis.json
Tim Hortons,2322 Royal Windsor Drive,Oakville,ON,3,(479) 1827788,3.53,1,1,1,1,1,Chai Tea Latte,http://dummyimage.com/219x145.jpg/ff4444/ffffff,http://epa.gov/facilisi/cras.jsp
The Village Coffee Shop,"7100 E Cave Creek Rd, Ste 138",Cave Creek,AZ,4.5,(215) 1123134,4.64,0,1,0,1,0,Chai Tea Latte,http://dummyimage.com/242x204.png/ff4444/ffffff,http://wikimedia.org/elementum/ligula/vehicula/consequat/morbi.aspx
Dennys,7319 Mcknight Rd,Pittsburgh,PA,3,(197) 7539658,2.33,0,0,0,0,1,Nitro Cold Brew,http://dummyimage.com/199x101.bmp/5fa2dd/ffffff,http://1und1.de/duis.png
Alexandria Cafe,1940 Lawrence Avenue E,Toronto,ON,2,(315) 2796356,1.41,1,1,1,0,1,Chai Tea Latte,http://dummyimage.com/110x169.bmp/dddddd/000000,http://wisc.edu/felis/eu/sapien/cursus/vestibulum.xml
Phoenix Coffee,1793 Coventry Rd,Cleveland,OH,4.5,(718) 5038535,1.08,1,0,1,0,1,Peppermint Mocha,http://dummyimage.com/210x143.jpg/dddddd/000000,http://engadget.com/nisl/aenean/lectus/pellentesque.jpg
Press Coffee,601 W Rio Salado Pkwy,Tempe,AZ,4.5,(199) 5066413,3.45,1,1,0,1,1,Chai Tea Latte,http://dummyimage.com/165x138.bmp/dddddd/000000,https://merriam-webster.com/erat/curabitur/gravida.js
Starbucks,371 Howe Ave,Cuyahoga Falls,OH,4,(435) 6901290,4.17,0,1,1,1,0,Vanilla Cappuccino,http://dummyimage.com/241x238.png/5fa2dd/ffffff,http://constantcontact.com/justo/in.json
Jonathans Restaurant,200 Marycroft Avenue,Vaughan,ON,4,(804) 1997268,4.42,0,0,0,0,1,Vanilla Cappuccino,http://dummyimage.com/156x106.jpg/ff4444/ffffff,https://ca.gov/lectus/pellentesque/eget.xml
Daylight Donuts,"1305 W Guadalupe Rd, Ste E-3",Mesa,AZ,4.5,(254) 4753689,2.24,1,0,0,0,1,Vanilla Cappuccino,http://dummyimage.com/222x130.png/dddddd/000000,https://instagram.com/potenti/nullam/porttitor/lacus/at.jsp
Krispy Kreme,"84 The Centre, Almondvale Boulevard",Livingston,WLN,3.5,(757) 1406141,4.22,1,1,1,1,0,Peppermint Mocha,http://dummyimage.com/233x203.png/cc0000/ffffff,https://nih.gov/erat/volutpat/in/congue/etiam.png
Royal Coffee Bar and Roasting,502 S College Ave,Tempe,AZ,4.5,(928) 9895814,4.47,0,0,1,0,1,Chai Tea Latte,http://dummyimage.com/107x114.jpg/dddddd/000000,https://amazon.co.jp/nam/tristique.html
Second Cup,415 Spadina Road,Toronto,ON,4.5,(905) 2210180,1.07,0,0,0,0,1,Chai Tea Latte,http://dummyimage.com/198x102.png/cc0000/ffffff,https://craigslist.org/etiam/pretium/iaculis/justo.png
Boba Deli,"420 S. Mill Ave, Ste 106",Tempe,AZ,1,(498) 5843377,3.8,0,0,1,0,0,Peppermint Mocha,http://dummyimage.com/186x108.png/ff4444/ffffff,http://jalbum.net/malesuada/in/imperdiet/et.png
Starbucks,1800 Sheppard Avenue E,North York,ON,3.5,(467) 1611102,2.87,1,1,1,0,0,Peppermint Mocha,http://dummyimage.com/232x125.bmp/dddddd/000000,http://comcast.net/nec/dui/luctus/rutrum/nulla/tellus.html
SPLAT Coffee n Such,1131 S Main St,Mount Holly,NC,5,(583) 4521212,1.29,1,1,1,1,1,Vanilla Cappuccino,http://dummyimage.com/222x214.bmp/ff4444/ffffff,http://home.pl/sodales/sed.png
Daily Press,6604 Detroit Ave,Cleveland,OH,4.5,(867) 5546635,1.03,1,1,1,1,1,Nitro Cold Brew,http://dummyimage.com/125x247.bmp/cc0000/ffffff,https://sfgate.com/luctus/et/ultrices/posuere/cubilia/curae.js
Starbucks,111 Lakeshore Road W,Mississauga,ON,3.5,(269) 1541097,2.3,1,0,0,1,1,Peppermint Mocha,http://dummyimage.com/175x148.bmp/ff4444/ffffff,https://ning.com/ac.html
First Draft Book Bar,300 W Camelback Rd,Phoenix,AZ,4.5,(858) 7125744,2.16,0,1,0,0,1,Vanilla Cappuccino,http://dummyimage.com/204x177.jpg/cc0000/ffffff,https://nytimes.com/feugiat/et/eros/vestibulum/ac/est.jsp
Fat Freddys Cafe,16000 N Civic Center Plz,Surprise,AZ,4.5,(603) 8627434,3.75,1,1,1,1,0,Nitro Cold Brew,http://dummyimage.com/138x165.bmp/cc0000/ffffff,http://ameblo.jp/vulputate/vitae/nisl/aenean.json
Bosa Donuts,655 N Arizona Ave,Chandler,AZ,4,(596) 5018427,2.92,1,0,0,0,1,Vanilla Cappuccino,http://dummyimage.com/125x182.bmp/cc0000/ffffff,http://reference.com/maecenas/rhoncus/aliquam.jpg
Kulturcafe Cassiopeia,Waldebene Ost 20,Stuttgart,BW,4,(853) 1093434,3.25,0,0,0,1,1,Chai Tea Latte,http://dummyimage.com/150x223.bmp/ff4444/ffffff,http://opensource.org/at/velit/eu/est/congue.html
Timothys World Coffee,"Pickering Town Centre, 1355 Kingston Rd",Pickering,ON,3.5,(717) 7059100,1.23,0,1,1,0,0,Vanilla Cappuccino,http://dummyimage.com/192x127.jpg/cc0000/ffffff,http://webnode.com/purus/aliquet/at/feugiat/non/pretium/quis.xml
Caf e Bar Oben,Jahnstr. 120,Stuttgart,BW,3,(867) 2481021,1.13,1,1,0,1,0,Vanilla Cappuccino,http://dummyimage.com/124x242.bmp/ff4444/ffffff,http://cargocollective.com/curae/donec/pharetra/magna/vestibulum.html
Caribou Coffee,200 S College St,Charlotte,NC,3.5,(166) 2280103,3.06,1,1,1,0,0,Peppermint Mocha,http://dummyimage.com/152x130.bmp/ff4444/ffffff,http://china.com.cn/platea.jsp
Mr Eion,9 Dean Park Street,Edinburgh,EDH,5,(466) 3221177,3.79,1,1,1,0,1,Peppermint Mocha,http://dummyimage.com/184x206.jpg/dddddd/000000,http://goo.ne.jp/eu/est/congue/elementum.jsp
Redhawk Coffee,120 Meyran Ave,Pittsburgh,PA,5,(109) 7551843,1.77,0,1,1,0,1,Peppermint Mocha,http://dummyimage.com/217x186.bmp/cc0000/ffffff,https://yandex.ru/mi/in.xml
Blackwells,53-62 South Bridge,Edinburgh,EDH,4,(822) 6755126,1.45,1,1,0,1,1,Chai Tea Latte,http://dummyimage.com/226x124.jpg/5fa2dd/ffffff,https://cam.ac.uk/dui/proin/leo/odio.js
Caribou Coffee,34 Park Ln,Hudson,OH,4.5,(911) 3410743,2.29,1,0,1,1,1,Vanilla Cappuccino,http://dummyimage.com/181x118.jpg/5fa2dd/ffffff,https://adobe.com/dui/vel.png
Dunkin Donuts,1044 Rt 11,Champlain,NY,1,(298) 3797604,4.38,0,0,1,1,0,Vanilla Cappuccino,http://dummyimage.com/230x168.bmp/cc0000/ffffff,http://ycombinator.com/cursus.jpg
Byte Cafe,3615 Superior Ave E,Cleveland,OH,4.5,(469) 1507116,3.4,0,1,1,0,1,Chai Tea Latte,http://dummyimage.com/133x155.jpg/dddddd/000000,https://etsy.com/in/sapien/iaculis/congue.html
Starbucks,1 Place Ville-Marie,Montreal,QC,3.5,(608) 5015795,4.62,0,0,0,0,1,Vanilla Cappuccino,http://dummyimage.com/212x233.png/ff4444/ffffff,http://uol.com.br/rhoncus/aliquam/lacus/morbi/quis/tortor.xml
Brûlerie St-Denis,3039 Rue Masson,Montreal,QC,4,(774) 6852343,3.97,0,1,1,1,1,Chai Tea Latte,http://dummyimage.com/203x242.jpg/cc0000/ffffff,http://zimbio.com/molestie/nibh.png
Press Coffee,"15147 N Scottsdale Rd, Ste 102",Scottsdale,AZ,4,(520) 2169258,3.49,0,1,1,1,0,Chai Tea Latte,http://dummyimage.com/210x177.bmp/dddddd/000000,http://quantcast.com/curabitur/convallis/duis/consequat.aspx
Starbucks,"1820 W Northern Ave, Ste A140",Phoenix,AZ,3,(529) 9910978,3.74,1,0,0,0,1,Chai Tea Latte,http://dummyimage.com/138x175.jpg/dddddd/000000,http://theguardian.com/eros/vestibulum/ac/est.xml
Starbucks,8705 Yonge St,Richmond Hill,ON,3,(712) 3981749,4.59,0,0,0,0,0,Nitro Cold Brew,http://dummyimage.com/123x214.jpg/cc0000/ffffff,http://fema.gov/vestibulum/quam/sapien/varius.xml
Tim Hortons,1 Mt Pleasant Road,Toronto,ON,2,(851) 8923994,1.47,1,0,0,0,1,Chai Tea Latte,http://dummyimage.com/103x129.jpg/cc0000/ffffff,https://narod.ru/duis/bibendum/morbi/non/quam.png
Starbucks,1019 Sheppard Avenue E,Toronto,ON,3,(100) 4372711,4.17,0,1,1,1,1,Nitro Cold Brew,http://dummyimage.com/131x100.png/5fa2dd/ffffff,http://godaddy.com/in/hac/habitasse.aspx
C & C Kitchen,107 E Sangamon Ave,Rantoul,IL,4.5,(302) 5418380,2.16,0,1,1,0,0,Peppermint Mocha,http://dummyimage.com/114x114.png/5fa2dd/ffffff,https://facebook.com/leo/rhoncus/sed/vestibulum.json
Pure Intentions Coffee,"2215 N Tryon St, Ste A",Charlotte,NC,5,(911) 5557561,1.07,1,1,0,1,1,Vanilla Cappuccino,http://dummyimage.com/190x168.png/ff4444/ffffff,https://microsoft.com/ultrices/erat/tortor/sollicitudin/mi.html
Pink Box Bakery Cafe,2104 Murray Ave,Pittsburgh,PA,4,(662) 1688883,2.3,0,1,1,0,1,Nitro Cold Brew,http://dummyimage.com/133x235.jpg/cc0000/ffffff,http://discovery.com/feugiat/et/eros/vestibulum/ac/est/lacinia.png
JJ Bean,197 Bartley Drive,Toronto,ON,5,(371) 9229173,2.48,0,1,1,1,0,Chai Tea Latte,http://dummyimage.com/202x182.png/cc0000/ffffff,http://marketwatch.com/odio/in/hac.aspx
Starbucks,1545 Bayview Avenue,East York,ON,3.5,(830) 4796828,2.49,1,0,1,0,0,Peppermint Mocha,http://dummyimage.com/236x132.bmp/cc0000/ffffff,http://vistaprint.com/tortor/risus/dapibus/augue.aspx
La Cornetteria,6528 Saint-Laurent Boulevard,Montreal,QC,4,(544) 8060554,3.4,0,0,1,0,0,Vanilla Cappuccino,http://dummyimage.com/211x248.bmp/cc0000/ffffff,http://rakuten.co.jp/leo/rhoncus.aspx
Cupz N Crepes,4232 E Chandler Blvd,Ahwatukee,AZ,4,(606) 7407924,1.37,0,0,0,0,0,Vanilla Cappuccino,http://dummyimage.com/181x128.png/ff4444/ffffff,http://google.com.au/penatibus/et/magnis/dis/parturient/montes.js
Peets Coffee & Tea,17999 Bagley Road,Middleburg Heights,OH,3.5,(985) 8100939,2.88,1,0,0,0,0,Vanilla Cappuccino,http://dummyimage.com/250x172.bmp/cc0000/ffffff,http://nbcnews.com/vivamus/vestibulum/sagittis/sapien/cum/sociis/natoque.xml
Starbucks,570-598 E Osborn Rd,Phoenix,AZ,2,(321) 7006615,3.39,0,0,1,0,0,Peppermint Mocha,http://dummyimage.com/116x144.bmp/5fa2dd/ffffff,http://odnoklassniki.ru/magna/vulputate/luctus/cum/sociis/natoque.jsp
Desert Wind Coffee Roasters,7772 W Sahara Ave,Las Vegas,NV,5,(817) 9978929,4,0,1,0,0,0,Peppermint Mocha,http://dummyimage.com/150x244.png/5fa2dd/ffffff,https://freewebs.com/mattis/egestas/metus/aenean.aspx
Simit & Chai,787 King Street W,Toronto,ON,4.5,(815) 2193799,3.14,1,0,0,0,1,Nitro Cold Brew,http://dummyimage.com/122x198.png/5fa2dd/ffffff,http://jigsy.com/egestas/metus.html
Tim Hortons,5555 Eglinton Avenue W,Etobicoke,ON,2.5,(365) 9660292,2.71,0,1,0,0,1,Peppermint Mocha,http://dummyimage.com/170x168.jpg/5fa2dd/ffffff,http://google.co.uk/cursus/vestibulum/proin/eu.html
Sweet Esc,"30 Gibson Drive, Unit 120",Markham,ON,3.5,(408) 2506507,3.21,0,1,1,1,1,Vanilla Cappuccino,http://dummyimage.com/119x155.jpg/5fa2dd/ffffff,https://oaic.gov.au/sit/amet/turpis.aspx
Starbucks,9932 Knockando Ln,Huntersville,NC,4,(502) 4891505,4.43,1,0,1,0,1,Chai Tea Latte,http://dummyimage.com/124x194.jpg/cc0000/ffffff,https://youtu.be/curae/duis/faucibus.jpg
Dunkin Donuts,7422 Broadview Rd,Parma,OH,3,(651) 7606917,4.06,0,1,0,1,1,Chai Tea Latte,http://dummyimage.com/104x102.png/ff4444/ffffff,http://163.com/lacus/at/velit/vivamus.jpg
Caf e Pamenar,307 Augusta Avenue,Toronto,ON,4,(610) 7188123,4.72,0,0,0,1,0,Nitro Cold Brew,http://dummyimage.com/230x237.bmp/cc0000/ffffff,http://sogou.com/varius/nulla/facilisi/cras.html
Coffee Buddha,964 Perry Hwy,Pittsburgh,PA,4,(265) 4137723,2.38,0,1,0,1,0,Chai Tea Latte,http://dummyimage.com/208x237.png/cc0000/ffffff,https://tinyurl.com/metus/vitae/ipsum/aliquam/non/mauris/morbi.jpg
Second Cup Coffee Company,8910 Yonge Street,Richmond Hill,ON,2.5,(976) 1315470,2.6,1,1,0,1,1,Nitro Cold Brew,http://dummyimage.com/102x238.bmp/dddddd/000000,http://washington.edu/sit/amet/nulla.xml
Jimmys Coffee,"Kensington Market, 191 Baldwin Street",Toronto,ON,4,(354) 4861341,1.46,1,1,0,1,0,Peppermint Mocha,http://dummyimage.com/132x195.jpg/cc0000/ffffff,http://dailymotion.com/nulla/elit/ac/nulla/sed/vel/enim.json
Starbucks,Santan Village Pkwy,Gilbert,AZ,2.5,(796) 4234402,3.58,0,0,1,0,0,Vanilla Cappuccino,http://dummyimage.com/197x208.png/5fa2dd/ffffff,https://wired.com/dis/parturient/montes/nascetur/ridiculus/mus.png
Second Cup Colossus,"21 Famous Avenue, Unit 4",Vaughan,ON,2,(409) 8793682,1.84,0,1,1,0,1,Nitro Cold Brew,http://dummyimage.com/218x191.png/ff4444/ffffff,http://who.int/hac/habitasse/platea/dictumst.html
Burger King,Königsberger Str. 14,Böblingen,BW,3,(687) 4170625,3.54,0,0,1,1,0,Chai Tea Latte,http://dummyimage.com/167x194.jpg/ff4444/ffffff,https://wired.com/vitae/nisi/nam/ultrices/libero/non.js
Starbucks,5434 New Fashion Way,Charlotte,NC,2.5,(143) 2486756,2.72,0,0,0,1,0,Peppermint Mocha,http://dummyimage.com/166x209.bmp/cc0000/ffffff,https://youtu.be/tellus/in.js
Cafe Odessa,65 Rue Beaubien Est,Montreal,QC,4,(993) 1945304,1.39,0,1,1,0,1,Peppermint Mocha,http://dummyimage.com/118x172.bmp/5fa2dd/ffffff,https://smugmug.com/donec.jpg
Nestle Toll House Cafe by Chip,6629 Las Vegas Blvd S,Las Vegas,NV,3.5,(303) 2966146,2.32,1,1,0,1,1,Chai Tea Latte,http://dummyimage.com/191x202.png/ff4444/ffffff,http://jugem.jp/vestibulum/eget/vulputate.png
Goodkind Coffee,15526 Madison Ave,Lakewood,OH,4.5,(390) 6798546,4.83,0,0,1,1,0,Peppermint Mocha,http://dummyimage.com/105x154.jpg/ff4444/ffffff,https://cmu.edu/mauris/vulputate/elementum.aspx
Tim Hortons,1728 Bloor Street W,Toronto,ON,4,(735) 7481114,3.93,1,1,1,0,1,Nitro Cold Brew,http://dummyimage.com/111x201.jpg/cc0000/ffffff,http://usatoday.com/faucibus/orci/luctus.aspx
Sonoma Coffee Cafe,9261 E Via de Ventura Blvd,Scottsdale,AZ,4,(760) 3230741,4.15,0,0,1,0,1,Peppermint Mocha,http://dummyimage.com/124x105.jpg/dddddd/000000,https://shop-pro.jp/massa/id/nisl/venenatis.json
Starbucks,3515 University Ave,Madison,WI,3,(355) 5066653,3.16,0,0,0,0,0,Vanilla Cappuccino,http://dummyimage.com/140x205.png/dddddd/000000,https://forbes.com/neque.jpg
Gaia,32 Crighton Place,Edinburgh,EDH,4,(719) 4685454,1.24,0,1,1,0,1,Nitro Cold Brew,http://dummyimage.com/204x143.bmp/5fa2dd/ffffff,https://jimdo.com/mauris/morbi/non/lectus.js
Coffreez,Königstr. 22,Stuttgart,BW,4.5,(108) 3832673,1.15,1,0,1,1,0,Nitro Cold Brew,http://dummyimage.com/136x227.jpg/ff4444/ffffff,https://weibo.com/ut/ultrices/vel/augue/vestibulum.json
Starbucks,"2425 E Camelback Rd, Ste 101",Phoenix,AZ,4.5,(504) 7847909,4.06,0,1,0,1,0,Nitro Cold Brew,http://dummyimage.com/110x211.png/dddddd/000000,https://desdev.cn/id/nisl/venenatis/lacinia/aenean.jsp
The Beatnik Coffee & Espresso,101-129 S 7th St,Las Vegas,NV,3,(262) 5521547,3.9,0,1,0,0,0,Peppermint Mocha,http://dummyimage.com/127x101.jpg/5fa2dd/ffffff,https://istockphoto.com/ut/blandit/non/interdum/in/ante/vestibulum.png
Recess Italian Ice & Desserts,"5035 S Fort Apache Rd, Ste 104",Las Vegas,NV,4,(373) 8706692,1.94,0,0,1,1,1,Nitro Cold Brew,http://dummyimage.com/167x111.jpg/cc0000/ffffff,http://disqus.com/interdum/in/ante/vestibulum/ante.aspx
Stragusto,152 rue Mozart Est,Montreal,QC,5,(681) 5223818,4.41,0,0,1,1,1,Vanilla Cappuccino,http://dummyimage.com/237x119.png/dddddd/000000,http://biglobe.ne.jp/et/magnis/dis/parturient/montes/nascetur/ridiculus.html
Snooze An AM Eatery,"2045 E Camelback Rd, Ste A17, Town and Country",Phoenix,AZ,4,(211) 7268175,3.13,1,1,1,0,0,Chai Tea Latte,http://dummyimage.com/211x216.bmp/ff4444/ffffff,https://sogou.com/ac/lobortis/vel/dapibus/at/diam.png
Caffe Nero,High School Yards,Edinburgh,EDH,4,(807) 8896876,1.16,1,1,0,0,1,Chai Tea Latte,http://dummyimage.com/168x104.png/dddddd/000000,http://networksolutions.com/justo/sollicitudin/ut/suscipit/a/feugiat.aspx
Just The Ticket,1 Montrose Terrace,Edinburgh,EDH,4.5,(212) 8712810,3.47,0,1,0,1,1,Peppermint Mocha,http://dummyimage.com/124x205.jpg/5fa2dd/ffffff,https://dion.ne.jp/nunc/commodo.json
Geppetto Cafe,4121 Butler St,Pittsburgh,PA,4.5,(818) 1957175,2.59,1,0,1,0,0,Vanilla Cappuccino,http://dummyimage.com/247x105.png/dddddd/000000,https://sourceforge.net/felis/ut/at.png
Hex Coffee,125 Remount Rd,Charlotte,NC,5,(260) 3486357,2.82,0,0,0,1,1,Nitro Cold Brew,http://dummyimage.com/224x159.png/dddddd/000000,https://printfriendly.com/non/interdum/in/ante.xml
Starbucks,11302 Euclid Ave,Cleveland,OH,3,(521) 5606566,3.9,0,1,1,0,1,Nitro Cold Brew,http://dummyimage.com/192x178.jpg/ff4444/ffffff,https://cloudflare.com/leo/maecenas/pulvinar/lobortis/est/phasellus.html
March e du Vieux,217 Boulevard Saint-Laurent,Montreal,QC,3.5,(410) 6067826,1.09,1,0,1,0,1,Peppermint Mocha,http://dummyimage.com/244x103.bmp/dddddd/000000,http://shareasale.com/sed/justo/pellentesque/viverra/pede/ac/diam.png
Ding Tea Las Vegas,"4725 Spring Mountain Rd, Ste F",Las Vegas,NV,4,(410) 6603571,3.04,1,0,0,1,0,Peppermint Mocha,http://dummyimage.com/170x165.jpg/ff4444/ffffff,http://google.de/sapien/arcu/sed/augue/aliquam/erat/volutpat.js
Pavillion Pastries Cafe,2554 Danforth Avenue,Toronto,ON,3.5,(516) 3341712,3.31,0,0,1,1,1,Chai Tea Latte,http://dummyimage.com/175x148.png/dddddd/000000,http://amazon.de/scelerisque/mauris/sit/amet/eros.xml
Kung Fu Tea,"449 State St, Unit A",Madison,WI,4,(689) 9557743,1.82,0,0,0,0,1,Peppermint Mocha,http://dummyimage.com/111x192.png/ff4444/ffffff,http://lycos.com/sagittis.json
California Coffee Bar,3619 California Ave,Pittsburgh,PA,5,(655) 9551108,1.16,1,0,0,1,1,Chai Tea Latte,http://dummyimage.com/206x132.png/ff4444/ffffff,http://cbslocal.com/rutrum.json
Grams,16 Haymarket Terrace,Edinburgh,EDH,4,(290) 5408042,2.91,1,1,0,0,1,Peppermint Mocha,http://dummyimage.com/236x234.png/dddddd/000000,http://toplist.cz/vel/dapibus/at/diam/nam/tristique.jsp
Tim Hortons,145 King St W,Toronto,ON,2.5,(708) 8405804,2.75,0,0,1,0,1,Vanilla Cappuccino,http://dummyimage.com/119x107.png/5fa2dd/ffffff,https://state.tx.us/sem/sed/sagittis.js
Caf e Le Placard,2129 Avenue du Mont Royal Est,Montreal,QC,3.5,(129) 4418456,4.71,1,1,1,0,1,Vanilla Cappuccino,http://dummyimage.com/229x217.bmp/cc0000/ffffff,http://cbsnews.com/adipiscing/elit/proin/risus/praesent/lectus/vestibulum.aspx
Starbucks,"5757 Wayne Newton Blvd, Terminal C, Gate 16",Las Vegas,NV,2.5,(228) 5034016,3.19,1,0,1,0,1,Nitro Cold Brew,http://dummyimage.com/207x177.jpg/5fa2dd/ffffff,https://about.me/lobortis/ligula/sit/amet/eleifend/pede/libero.js
Hale Coffee,300 Campbell Avenue,Toronto,ON,4.5,(665) 8578458,3.02,1,1,0,0,0,Chai Tea Latte,http://dummyimage.com/198x239.jpg/dddddd/000000,https://dailymotion.com/ac.jpg
Tim Hortons,148 Simcoe Street,Toronto,ON,2,(103) 9361052,4.23,0,1,1,0,1,Chai Tea Latte,http://dummyimage.com/242x159.jpg/ff4444/ffffff,http://arstechnica.com/eros/suspendisse/accumsan/tortor/quis/turpis/sed.jpg
The Chocolate Lounge,"Harvey Nichols - Forth Floor, 30 - 34 St Andrew Square",Edinburgh,EDH,4.5,(245) 1464770,4.05,0,0,1,1,0,Nitro Cold Brew,http://dummyimage.com/227x138.jpg/ff4444/ffffff,http://dell.com/fusce/congue/diam.aspx
Kimberly Anns Tea Room & Cafe,7153 N 59th Ave,Glendale,AZ,3,(500) 7832555,1.39,1,0,0,0,1,Chai Tea Latte,http://dummyimage.com/250x165.png/dddddd/000000,http://mayoclinic.com/eros/elementum.html
Souvia Tea,"15414 N 7th St, Ste 8",Phoenix,AZ,4.5,(189) 6635961,4.83,1,0,0,0,1,Vanilla Cappuccino,http://dummyimage.com/167x188.png/ff4444/ffffff,https://php.net/a/feugiat.json
Dunkin Donuts,4727 E Bell Rd,Phoenix,AZ,2.5,(594) 8555331,1.67,0,0,0,1,0,Vanilla Cappuccino,http://dummyimage.com/215x184.bmp/dddddd/000000,http://odnoklassniki.ru/erat/eros.json
The Willow House,1722 W Van Buren St,Phoenix,AZ,3,(983) 3932372,3.77,1,1,1,1,1,Vanilla Cappuccino,http://dummyimage.com/219x118.jpg/cc0000/ffffff,https://bandcamp.com/cum/sociis.json
Starbucks,"7700 W Arrowhead Town Ctr, Ste 1082",Glendale,AZ,3.5,(560) 9110400,4.63,1,1,1,1,0,Nitro Cold Brew,http://dummyimage.com/248x168.png/5fa2dd/ffffff,http://yandex.ru/lorem/id/ligula/suspendisse/ornare/consequat/lectus.aspx
Procaffeination,4 St Mary's Street,Edinburgh,EDH,4,(192) 8087618,2.41,1,1,1,0,0,Vanilla Cappuccino,http://dummyimage.com/122x189.png/dddddd/000000,http://technorati.com/adipiscing/elit/proin/interdum/mauris/non/ligula.json
Au Bon Pain,4910 Forbes Ave,Pittsburgh,PA,3,(197) 7866898,3.33,0,1,0,0,1,Nitro Cold Brew,http://dummyimage.com/205x227.jpg/dddddd/000000,http://archive.org/ante/ipsum/primis/in/faucibus.js
Northern Perks Doughnuts & Coffee,1255 E Northern Ave,Phoenix,AZ,5,(322) 2559030,2.05,1,0,1,0,1,Peppermint Mocha,http://dummyimage.com/150x114.bmp/dddddd/000000,https://hc360.com/donec/posuere/metus/vitae/ipsum.jpg
Teavana,1004 S Park Ctr,Strongsville,OH,3,(429) 4984820,3.09,0,1,0,0,1,Chai Tea Latte,http://dummyimage.com/191x166.jpg/5fa2dd/ffffff,https://umn.edu/sed/sagittis.json
Deacons House Cafe,"3 Brodie's Close, 304 Lawnmarket",Edinburgh,EDH,3.5,(683) 2228591,1.8,0,1,1,0,1,Nitro Cold Brew,http://dummyimage.com/180x221.png/ff4444/ffffff,http://godaddy.com/accumsan/felis.xml
Shäika Caf e,5526 Rue Sherbrooke Ouest,Montreal,QC,4,(188) 2723638,2.2,0,1,1,1,1,Vanilla Cappuccino,http://dummyimage.com/171x230.jpg/ff4444/ffffff,http://harvard.edu/nisi/vulputate/nonummy/maecenas/tincidunt/lacus/at.png
Dodos Cafe,66 W Towne Mall,Madison,WI,4,(513) 4547369,3.48,1,1,0,0,1,Nitro Cold Brew,http://dummyimage.com/220x238.jpg/cc0000/ffffff,https://buzzfeed.com/erat/curabitur/gravida/nisi/at.jpg
Remarkable Bean,1103 Queen Street E,Toronto,ON,4,(859) 9210919,4.05,0,0,1,0,1,Nitro Cold Brew,http://dummyimage.com/188x194.bmp/dddddd/000000,https://cnbc.com/tellus/nulla/ut.png
Teddy Story,"82 Adelaide Street E, Unit C",Toronto,ON,4.5,(667) 7525382,2.39,0,0,0,1,0,Vanilla Cappuccino,http://dummyimage.com/126x178.jpg/cc0000/ffffff,http://uiuc.edu/neque/duis/bibendum/morbi/non/quam/nec.png
Starbucks,139 Yorkville Ave,Toronto,ON,3,(607) 2050636,4.43,0,1,0,0,0,Peppermint Mocha,http://dummyimage.com/183x149.png/ff4444/ffffff,https://deliciousdays.com/ut/mauris/eget/massa/tempor/convallis/nulla.jpg
Tim Hortons,494 Dundas St W,Oakville,ON,4.5,(593) 5810881,4.18,0,1,1,1,0,Vanilla Cappuccino,http://dummyimage.com/141x180.png/5fa2dd/ffffff,https://pcworld.com/augue/quam/sollicitudin/vitae.png
Krispy Kreme,"3607 E Bell Rd, Ste 1",Phoenix,AZ,3.5,(687) 7379689,4.82,1,0,1,1,0,Chai Tea Latte,http://dummyimage.com/237x204.jpg/5fa2dd/ffffff,https://unblog.fr/ultrices/mattis.xml
The City Cafe,19 Blair Street,Edinburgh,EDH,3.5,(650) 6948015,1.01,1,0,0,1,1,Chai Tea Latte,http://dummyimage.com/214x210.png/5fa2dd/ffffff,http://telegraph.co.uk/orci/luctus/et/ultrices/posuere.html
Tucana Coffee,1413 Dundas Street W,Toronto,ON,4.5,(719) 1619332,2.83,0,0,1,1,0,Nitro Cold Brew,http://dummyimage.com/183x154.bmp/ff4444/ffffff,https://tripadvisor.com/massa/donec.json
Second Cup,3695 St. Laurent Boulevard,Montreal,QC,3.5,(427) 8915324,1.8,1,0,0,1,0,Nitro Cold Brew,http://dummyimage.com/110x165.bmp/5fa2dd/ffffff,https://mapy.cz/cras/pellentesque/volutpat/dui/maecenas/tristique.xml
Tea Shop 168,261B Spadina Avenue,Toronto,ON,3,(985) 2146676,2.2,1,1,0,0,0,Nitro Cold Brew,http://dummyimage.com/144x233.png/dddddd/000000,https://hp.com/suspendisse/potenti/cras/in/purus.aspx
Dunkin Donuts,5133 South Blvd,Charlotte,NC,3,(847) 7860144,4.25,0,1,1,1,1,Chai Tea Latte,http://dummyimage.com/154x167.jpg/dddddd/000000,https://ca.gov/mi/pede/malesuada.jsp
Einstein Bros Bagels,2701 University Ave,Madison,WI,3.5,(154) 2163598,3.99,1,1,0,0,1,Vanilla Cappuccino,http://dummyimage.com/116x204.png/cc0000/ffffff,http://acquirethisname.com/erat.jsp
Second Cup,1550 Kingston Road,Pickering,ON,4,(186) 1026611,4.91,1,1,0,0,0,Peppermint Mocha,http://dummyimage.com/141x144.bmp/5fa2dd/ffffff,http://youku.com/erat/tortor/sollicitudin/mi/sit.aspx
Tim Hortons,380 Weston Road,Toronto,ON,2,(406) 1471727,1.37,1,0,1,0,1,Nitro Cold Brew,http://dummyimage.com/142x247.png/5fa2dd/ffffff,http://ifeng.com/dapibus/duis/at/velit/eu.jpg
City Central Coffee,100 N 3rd St,Phoenix,AZ,4.5,(967) 5263099,3.91,0,1,1,1,0,Vanilla Cappuccino,http://dummyimage.com/144x140.bmp/cc0000/ffffff,http://live.com/in/imperdiet/et/commodo.json
Caf e Schilling,Charlottenstr. 4,Böblingen,BW,4,(224) 2367456,3.9,1,1,1,1,1,Chai Tea Latte,http://dummyimage.com/196x129.bmp/5fa2dd/ffffff,https://illinois.edu/pretium/nisl/ut/volutpat/sapien/arcu/sed.png
Saxbys Coffee,"835 Seven Hills Dr, Ste 190",Henderson,NV,3.5,(217) 6566901,1.26,1,0,0,1,1,Vanilla Cappuccino,http://dummyimage.com/142x156.bmp/ff4444/ffffff,https://goo.gl/sed/vel/enim/sit/amet/nunc/viverra.png
The Root Cafe,852 W Bath Rd,Cuyahoga Falls,OH,4.5,(808) 1359937,2.31,0,0,0,0,0,Vanilla Cappuccino,http://dummyimage.com/117x237.bmp/dddddd/000000,https://earthlink.net/enim/lorem/ipsum/dolor.xml
Starbucks,1690 N Dysart Rd,Goodyear,AZ,3.5,(553) 1226404,1.33,1,0,0,0,1,Vanilla Cappuccino,http://dummyimage.com/244x209.png/5fa2dd/ffffff,https://paypal.com/morbi/vestibulum/velit/id/pretium/iaculis.jpg
Terrazza,Königstr. 28,Stuttgart,BW,2,(375) 7395549,1.35,1,1,1,1,0,Vanilla Cappuccino,http://dummyimage.com/161x113.png/ff4444/ffffff,https://ibm.com/lacus/curabitur/at/ipsum.jpg
Rosie Robin A Touch of Convenience,616 Gladstone Avenue,Toronto,ON,4,(404) 1763532,4.9,1,1,0,0,0,Chai Tea Latte,http://dummyimage.com/228x114.bmp/5fa2dd/ffffff,https://youku.com/mauris/vulputate/elementum.jsp
Tim Hortons,"475, Rue Dumont",Dorval,QC,4.5,(317) 4079852,3.99,1,0,0,1,0,Vanilla Cappuccino,http://dummyimage.com/214x144.png/5fa2dd/ffffff,http://blogspot.com/velit.html
Starbucks,189 Rathburn Road W,Mississauga,ON,3.5,(388) 9295669,2.02,0,0,0,1,1,Peppermint Mocha,http://dummyimage.com/128x250.jpg/dddddd/000000,http://cnbc.com/augue/vestibulum.html
Perry Perk,1012 Perry Hwy,Pittsburgh,PA,4.5,(550) 2305083,2.47,1,0,0,1,0,Chai Tea Latte,http://dummyimage.com/128x136.bmp/5fa2dd/ffffff,https://ucla.edu/volutpat/erat/quisque/erat/eros/viverra/eget.jsp
Deli,Geißstr. 7,Stuttgart,BW,3.5,(615) 2300560,4.9,1,0,0,0,1,Vanilla Cappuccino,http://dummyimage.com/122x164.jpg/dddddd/000000,http://xing.com/curabitur/at/ipsum/ac.js
Dunkin Donuts,4923 E Chandler Blvd,Phoenix,AZ,3,(721) 9338977,1.77,0,1,0,0,1,Nitro Cold Brew,http://dummyimage.com/176x145.bmp/ff4444/ffffff,http://homestead.com/volutpat/eleifend/donec/ut.xml
Tim Hortons,4920 Tomken Road,Mississauga,ON,4,(157) 7515061,1.51,0,0,1,0,0,Chai Tea Latte,http://dummyimage.com/152x183.bmp/dddddd/000000,https://yelp.com/adipiscing/lorem/vitae/mattis/nibh/ligula/nec.js
Tim Hortons,725 Warden Avenue,Scarborough,ON,1.5,(126) 9371569,1.07,1,1,1,0,1,Nitro Cold Brew,http://dummyimage.com/126x137.jpg/ff4444/ffffff,https://mtv.com/condimentum/id/luctus/nec/molestie/sed/justo.json
Piedmont Coffee Bar,"66 Isabella Street, Unit 4",Toronto,ON,4.5,(585) 4597109,3.87,0,0,1,1,0,Nitro Cold Brew,http://dummyimage.com/224x229.bmp/ff4444/ffffff,https://rediff.com/sed/nisl.png
Green Beans Coffee,Pittsbugh International Airport,Pittsburgh,PA,3,(484) 7926611,2.27,0,0,0,1,0,Nitro Cold Brew,http://dummyimage.com/155x166.bmp/cc0000/ffffff,http://mayoclinic.com/at/feugiat.jsp
Caf e dei Campi,1360 Boulevard Rosemont,Montreal,QC,5,(636) 2182072,3.33,1,1,0,1,0,Peppermint Mocha,http://dummyimage.com/103x169.bmp/ff4444/ffffff,http://mail.ru/nibh/fusce/lacus/purus.xml
Balzacs Coffee Roastery,"55 Mill Street, Building 60",Toronto,ON,4,(621) 6718899,2.88,0,0,0,0,0,Peppermint Mocha,http://dummyimage.com/105x177.jpg/dddddd/000000,https://google.co.jp/quam.aspx
Les Moulins La Fayette,250 Rue Sherbrooke O,Montreal,QC,4,(130) 1140255,4.37,1,1,0,1,1,Peppermint Mocha,http://dummyimage.com/141x241.png/dddddd/000000,https://nba.com/risus/auctor/sed/tristique.jpg
Dunkin Donuts,14055 Independence Blvd,Indian Trail,NC,3.5,(238) 3694413,4.27,1,1,1,1,0,Vanilla Cappuccino,http://dummyimage.com/202x202.jpg/5fa2dd/ffffff,http://fc2.com/integer/a/nibh/in.png
Second Cup,"7 Place Du Commerc, Suite 101",Verdun,QC,3,(463) 5175158,1.84,0,0,1,0,1,Nitro Cold Brew,http://dummyimage.com/109x249.jpg/ff4444/ffffff,http://issuu.com/pharetra.jsp
GCBC,Loop Rd,Phoenix,AZ,2.5,(557) 1135135,4.97,1,1,0,0,1,Vanilla Cappuccino,http://dummyimage.com/162x184.png/ff4444/ffffff,http://artisteer.com/ac/consequat/metus/sapien/ut.html
Starbucks,5067 Dixie Rd,Mississauga,ON,3,(245) 6956165,2.29,1,1,1,0,0,Chai Tea Latte,http://dummyimage.com/205x174.bmp/5fa2dd/ffffff,http://bbb.org/bibendum/imperdiet/nullam.aspx
Kibo House Sushi and Cafe,701 Saint Clair Avenue  W,Toronto,ON,3,(592) 8908214,4.52,1,0,0,1,0,Peppermint Mocha,http://dummyimage.com/139x159.png/cc0000/ffffff,https://studiopress.com/suspendisse/potenti/in.html
Tim Hortons,1340 Boulevard le Corbusier,Laval,QC,1.5,(341) 3886498,1.21,0,1,1,1,0,Nitro Cold Brew,http://dummyimage.com/214x143.jpg/dddddd/000000,https://oaic.gov.au/nisl/nunc.jpg
Absolute Cafe,2100 Queen Street E,Toronto,ON,4.5,(501) 9523470,2.79,0,1,1,1,0,Nitro Cold Brew,http://dummyimage.com/147x211.jpg/dddddd/000000,http://bigcartel.com/libero.html
Bread & Roses Bakery Cafe On Danforth,508 danforth Avenue,Toronto,ON,3,(125) 4840644,3.27,1,0,0,1,0,Vanilla Cappuccino,http://dummyimage.com/241x220.png/ff4444/ffffff,https://sogou.com/convallis/morbi/odio/odio/elementum.xml
Starbucks,1 E Main St,Madison,WI,3.5,(507) 1343141,1.07,0,0,1,0,1,Peppermint Mocha,http://dummyimage.com/199x196.bmp/cc0000/ffffff,http://ca.gov/in/faucibus/orci/luctus/et.aspx
Goldstruck Coffee,130 Cumberland Street,Toronto,ON,3.5,(767) 4505040,2.13,0,0,0,0,0,Chai Tea Latte,http://dummyimage.com/132x205.bmp/dddddd/000000,https://t.co/ut/dolor/morbi/vel.xml
Starbucks,2010 S Alma School Rd,Chandler,AZ,3,(612) 5025758,1.43,0,0,1,1,0,Chai Tea Latte,http://dummyimage.com/169x249.png/5fa2dd/ffffff,http://1und1.de/amet.aspx
Lowdown Coffee,40 George Street,Edinburgh,EDH,4.5,(737) 9014519,2.19,1,1,0,0,1,Nitro Cold Brew,http://dummyimage.com/250x107.png/cc0000/ffffff,http://dailymail.co.uk/volutpat/convallis/morbi/odio/odio.jpg
A Place For Us,"First Markham Place, 3255 Highway 7 East, Unit 27",Markham,ON,3.5,(778) 2166559,2.46,1,1,1,0,1,Chai Tea Latte,http://dummyimage.com/209x161.png/dddddd/000000,http://macromedia.com/non/velit/donec/diam.xml
Aspinwall Beans N Cream,16 Brilliant Ave,Aspinwall,PA,4.5,(693) 1641515,1.24,0,0,0,1,0,Nitro Cold Brew,http://dummyimage.com/128x129.png/dddddd/000000,http://yale.edu/libero/nam/dui/proin/leo/odio.jsp
La Papaya,3347 E Russell Rd,Las Vegas,NV,3.5,(693) 1868343,4.21,1,1,0,0,0,Peppermint Mocha,http://dummyimage.com/183x163.png/ff4444/ffffff,http://51.la/morbi/quis/tortor.json
Starbucks,190 Queen Street E,Brampton,ON,4,(957) 1830083,2.05,1,0,1,0,0,Nitro Cold Brew,http://dummyimage.com/182x203.jpg/dddddd/000000,https://addthis.com/ut.js
M Square Coffee Co,"123 Queen Street W, Unit C24",Toronto,ON,4,(610) 6372095,3.52,1,0,1,1,0,Peppermint Mocha,http://dummyimage.com/208x204.bmp/5fa2dd/ffffff,https://phpbb.com/mollis.js
Patisserie Florentin,5 NW Circus Place,Edinburgh,EDH,4,(793) 9719851,3.06,0,0,1,1,0,Peppermint Mocha,http://dummyimage.com/187x118.jpg/cc0000/ffffff,http://ebay.co.uk/sit/amet/consectetuer/adipiscing/elit/proin.jsp
Dunkin Donuts,1541 Washington Rd,Pittsburgh,PA,3,(248) 6302168,1.1,0,0,1,1,1,Vanilla Cappuccino,http://dummyimage.com/153x139.png/dddddd/000000,https://bloglines.com/leo/rhoncus/sed.jsp
Starbucks,111 NW 3rd St,Phoenix,AZ,2.5,(249) 8239447,3.58,0,0,1,0,1,Nitro Cold Brew,http://dummyimage.com/111x182.jpg/cc0000/ffffff,http://redcross.org/nulla/quisque/arcu/libero.html
Order in the Court,333 Las Vegas Blvd S,Las Vegas,NV,3,(224) 2695356,3.47,1,1,1,1,0,Vanilla Cappuccino,http://dummyimage.com/245x190.jpg/dddddd/000000,https://si.edu/eleifend/donec/ut/dolor.json
Littlefish,3080 Dundas Street  W,Toronto,ON,3.5,(857) 1016263,3.66,0,0,0,1,0,Nitro Cold Brew,http://dummyimage.com/198x200.bmp/dddddd/000000,http://stanford.edu/rhoncus/mauris/enim.js
Boulangerie et Cie,1001 Boulevard Décarie,Montreal,QC,3,(209) 7620273,1.7,0,0,0,1,0,Chai Tea Latte,http://dummyimage.com/244x155.png/cc0000/ffffff,https://huffingtonpost.com/sed/interdum/venenatis/turpis.aspx
Starbucks,"50 W Jefferson St, Ste 170",Phoenix,AZ,3.5,(622) 8596932,1.55,0,0,0,1,1,Peppermint Mocha,http://dummyimage.com/211x176.jpg/ff4444/ffffff,http://infoseek.co.jp/vestibulum/quam/sapien/varius/ut/blandit/non.jsp
The Cafe,198 Wynn Main Gate Dr,Las Vegas,NV,2.5,(536) 3340321,1.95,0,1,0,1,0,Chai Tea Latte,http://dummyimage.com/244x117.jpg/dddddd/000000,http://eventbrite.com/justo/pellentesque/viverra.jpg
Tim Hortons,152 Park Lawn Road,Toronto,ON,2,(123) 2568621,4.21,1,0,0,0,0,Peppermint Mocha,http://dummyimage.com/158x190.png/cc0000/ffffff,https://123-reg.co.uk/est/quam.json
Scorpion Cafe,1021 E Paradise Hills Dr,Henderson,NV,4.5,(773) 6262300,4.11,1,0,0,0,1,Chai Tea Latte,http://dummyimage.com/218x165.jpg/5fa2dd/ffffff,http://is.gd/aliquam/lacus.png
The Common,408 Bloor Street W,Toronto,ON,4,(447) 6626805,3.77,1,0,1,0,1,Peppermint Mocha,http://dummyimage.com/168x227.png/5fa2dd/ffffff,http://nbcnews.com/nec/molestie/sed/justo.json
Dunkin Donuts,36071 Chester Rd,Avon,OH,1.5,(173) 3605307,3.86,1,1,0,1,1,Chai Tea Latte,http://dummyimage.com/102x204.jpg/dddddd/000000,http://mozilla.org/velit.png
Heartwood Coffee Roasters,"46 Ravenna St, Ste D-2",Hudson,OH,5,(128) 6010601,2.93,0,1,0,0,1,Vanilla Cappuccino,http://dummyimage.com/185x149.jpg/cc0000/ffffff,https://indiatimes.com/sapien/ut/nunc/vestibulum.js
Dunkin Donuts,"5485 Simmons St, Ste 3",North Las Vegas,NV,2,(149) 4619623,4.41,0,1,0,0,0,Vanilla Cappuccino,http://dummyimage.com/207x222.jpg/dddddd/000000,https://bravesites.com/ut/tellus/nulla/ut.html
Arabica Coffee House,12626 Chillicothe Rd,Chesterland,OH,3.5,(270) 6455913,4.82,0,0,1,0,1,Chai Tea Latte,http://dummyimage.com/204x207.png/5fa2dd/ffffff,https://newsvine.com/eget/nunc/donec/quis/orci.js
Dunkin Donuts,360 Curry Hollow Rd,Pleasant Hills,PA,3.5,(125) 5076855,4.38,1,0,0,0,1,Peppermint Mocha,http://dummyimage.com/232x161.jpg/dddddd/000000,http://google.cn/odio/in/hac/habitasse/platea/dictumst/maecenas.png
Tea Market,"Cumberland Terrace, 2 Bloor St W, Lower Level",Toronto,ON,3.5,(231) 1304242,4.15,1,0,1,1,0,Vanilla Cappuccino,http://dummyimage.com/221x188.png/dddddd/000000,http://etsy.com/sapien/dignissim/vestibulum/vestibulum/ante/ipsum/primis.json
Second Cup Coffee,8505 Warden Avenue,Markham,ON,3.5,(387) 6854910,2.84,0,0,1,0,0,Chai Tea Latte,http://dummyimage.com/118x120.bmp/5fa2dd/ffffff,https://oaic.gov.au/nulla.html
Dunkin Donuts,4130 E Thomas Rd,Phoenix,AZ,3,(423) 6896387,1.66,0,1,1,0,0,Nitro Cold Brew,http://dummyimage.com/128x194.png/dddddd/000000,https://hhs.gov/ultrices/posuere/cubilia/curae/donec.json
Tim Hortons,860 York Mills Road,North York,ON,3,(488) 9182428,1.25,0,0,1,1,1,Nitro Cold Brew,http://dummyimage.com/207x154.png/ff4444/ffffff,http://statcounter.com/vivamus/vestibulum/sagittis/sapien/cum/sociis/natoque.aspx
Dunkin Donuts,1014 Wilson Bus Pkwy,Fort Mill,SC,5,(290) 4346132,4.57,1,1,1,1,1,Peppermint Mocha,http://dummyimage.com/202x136.jpg/cc0000/ffffff,http://wikispaces.com/adipiscing/lorem/vitae/mattis/nibh/ligula/nec.jsp
Dunkin Donuts,"1740 E Broadway, Ste 101",Tempe,AZ,3,(176) 5377482,2.36,1,1,0,1,1,Peppermint Mocha,http://dummyimage.com/166x247.jpg/5fa2dd/ffffff,https://newyorker.com/nibh/ligula.html
Dunkin Donuts,2739 Medina Rd,Medina,OH,1,(199) 4951802,4.28,1,1,0,1,0,Peppermint Mocha,http://dummyimage.com/172x126.jpg/5fa2dd/ffffff,https://marketwatch.com/nunc/commodo/placerat/praesent/blandit.js
Dunkin Donuts,1615 N 99th Ave,Phoenix,AZ,2.5,(184) 2405783,1.22,0,0,0,0,1,Peppermint Mocha,http://dummyimage.com/230x249.bmp/dddddd/000000,http://paginegialle.it/sem/fusce/consequat/nulla/nisl/nunc.jpg
Dunkin Donuts,"1342 W Warner Rd, Ste 101",Tempe,AZ,2.5,(137) 7439436,4.54,1,0,0,1,1,Nitro Cold Brew,http://dummyimage.com/115x131.jpg/cc0000/ffffff,https://cbsnews.com/quam/fringilla.json
Dunkin Donuts,"3114 Fincher Farm Rd, Ste 100",Matthews,NC,3,(553) 7573327,4.87,1,0,0,1,0,Peppermint Mocha,http://dummyimage.com/114x222.png/cc0000/ffffff,http://ihg.com/turpis/sed/ante/vivamus/tortor.html
Dunkin Donuts,6763 Albemarle Rd,Charlotte,NC,1.5,(858) 1458139,2.08,1,1,1,1,1,Peppermint Mocha,http://dummyimage.com/165x207.bmp/5fa2dd/ffffff,https://usnews.com/sed/tincidunt/eu/felis/fusce.js
Dunkin Donuts,8847 E Indian Bend Rd,Scottsdale,AZ,3.5,(935) 2406330,4.46,0,1,0,0,1,Nitro Cold Brew,http://dummyimage.com/236x139.bmp/cc0000/ffffff,http://taobao.com/libero/non/mattis/pulvinar.json
Zimt & Zucker,Weißenburgstr. 2 C,Stuttgart,BW,3.5,(176) 8304836,4.55,1,0,1,1,1,Peppermint Mocha,http://dummyimage.com/160x176.bmp/dddddd/000000,https://php.net/nascetur.json
Tim Hortons,2301 Brimley Road,Toronto,ON,4,(934) 9684445,3.04,0,1,1,0,0,Vanilla Cappuccino,http://dummyimage.com/178x109.jpg/ff4444/ffffff,https://rambler.ru/sit/amet/diam/in/magna.xml
Tim Hortons,2991 Erin Centre Boulevard,Mississauga,ON,1.5,(504) 2469906,2.02,1,1,1,0,0,Vanilla Cappuccino,http://dummyimage.com/221x231.png/ff4444/ffffff,https://blogtalkradio.com/augue.json
Blue Bar Cafe,10 Cambridge Street,Edinburgh,EDH,4,(623) 2521776,4.91,0,1,1,0,1,Peppermint Mocha,http://dummyimage.com/209x207.bmp/5fa2dd/ffffff,https://scribd.com/justo/etiam/pretium/iaculis/justo.jpg
Buck 15 Espresso,3027 Rue Notre-Dame O,Montreal,QC,4.5,(528) 9017695,3.86,1,0,0,0,0,Vanilla Cappuccino,http://dummyimage.com/243x151.jpg/5fa2dd/ffffff,http://123-reg.co.uk/ultrices/enim/lorem/ipsum/dolor/sit/amet.js
Jeet,4200 Penn Ave,Pittsburgh,PA,3.5,(561) 7282038,2.26,0,0,1,1,0,Nitro Cold Brew,http://dummyimage.com/160x147.png/ff4444/ffffff,http://whitehouse.gov/vel/lectus/in.xml
The Black Cup Coffee,"707 Fremont St, Ste 1050, Container Park Downtown",Las Vegas,NV,3,(545) 5988864,1.33,1,1,0,1,1,Chai Tea Latte,http://dummyimage.com/124x229.bmp/ff4444/ffffff,https://theguardian.com/consequat/varius.jsp
Dunkin Donuts,1302 N Prospect Ave,Champaign,IL,2.5,(838) 8041244,4.37,1,1,0,1,0,Chai Tea Latte,http://dummyimage.com/191x111.png/dddddd/000000,https://about.com/consequat/lectus/in/est.js
Cafe Lito,"7155 W Campo Bello Dr, Bldg A, Ste 2",Glendale,AZ,4.5,(947) 8634134,2.96,0,1,1,0,0,Peppermint Mocha,http://dummyimage.com/224x145.bmp/cc0000/ffffff,https://dagondesign.com/id/ornare/imperdiet/sapien/urna.jpg
Tim Hortons,438 University Avenue,Toronto,ON,4,(222) 3382984,2.78,1,1,1,0,0,Chai Tea Latte,http://dummyimage.com/137x197.png/ff4444/ffffff,https://time.com/tempus.xml
Sassy Teas,121 Lakeshore Road W,Port Credit,ON,2.5,(116) 7200947,4.26,0,0,0,1,0,Peppermint Mocha,http://dummyimage.com/184x137.png/5fa2dd/ffffff,https://washingtonpost.com/mauris/sit/amet/eros/suspendisse/accumsan/tortor.jsp
Dunkin Donuts,5790 Mayfield Rd,Cleveland,OH,3,(742) 8599201,1.81,1,0,1,0,0,Chai Tea Latte,http://dummyimage.com/211x145.jpg/cc0000/ffffff,https://yahoo.co.jp/vehicula/condimentum.html
LOr en Grain,751 Rue Rachel Est,Montreal,QC,4.5,(656) 1534600,2.52,0,1,1,1,1,Peppermint Mocha,http://dummyimage.com/107x103.bmp/dddddd/000000,https://moonfruit.com/molestie/hendrerit/at.json
Dunkin Donuts,"990 E Riggs Rd, Ste 1",Chandler,AZ,2.5,(679) 9602874,1.3,1,1,1,1,1,Chai Tea Latte,http://dummyimage.com/158x156.png/cc0000/ffffff,https://amazon.de/consequat/metus.html
Your Moms Donuts,"11025 Monroe Rd, Ste F",Matthews,NC,4.5,(649) 8360550,2.52,1,0,1,1,0,Nitro Cold Brew,http://dummyimage.com/101x132.png/5fa2dd/ffffff,https://microsoft.com/adipiscing.aspx
Dunkin Donuts,1158 S Crismon Rd,Mesa,AZ,2,(176) 6432866,1.66,0,0,1,1,0,Peppermint Mocha,http://dummyimage.com/173x101.png/dddddd/000000,https://opera.com/elit/ac/nulla/sed/vel/enim.xml
Second Cup,3801 Boulevard Saint-Laurent,Montreal,QC,3.5,(241) 7857202,1.36,0,0,1,1,0,Peppermint Mocha,http://dummyimage.com/185x214.bmp/ff4444/ffffff,http://apache.org/natoque/penatibus/et.jpg
Starbucks,"Hauptbahnhof, Arnulf-Klett-Platz 2",Stuttgart,BW,3.5,(925) 6154132,3.09,1,1,1,1,0,Vanilla Cappuccino,http://dummyimage.com/101x170.bmp/dddddd/000000,http://businesswire.com/ut/nunc/vestibulum/ante/ipsum/primis/in.aspx
Brew Lab West End,3A Queensferry Street Lane,Edinburgh,EDH,4,(264) 5315441,1.07,0,1,0,1,1,Chai Tea Latte,http://dummyimage.com/216x212.png/5fa2dd/ffffff,http://vkontakte.ru/felis/donec/semper/sapien.html
Caf Bistro Monk,6396 Boul. Monk,Montreal,QC,4,(589) 5092759,4.71,0,0,1,0,1,Vanilla Cappuccino,http://dummyimage.com/215x159.jpg/dddddd/000000,http://wikia.com/arcu/adipiscing/molestie/hendrerit/at/vulputate.jsp
Latitude Coffee,81 Rose Street,Edinburgh,MLN,3,(947) 7078578,4.11,1,0,1,1,1,Chai Tea Latte,http://dummyimage.com/165x231.png/5fa2dd/ffffff,http://nydailynews.com/mattis/egestas/metus/aenean/fermentum/donec.html
Krispy Kreme,"10038 Charlotte Hwy, Ste 9976",Fort Mill,SC,4,(612) 2884413,2.47,1,1,1,1,0,Vanilla Cappuccino,http://dummyimage.com/153x123.png/ff4444/ffffff,http://wiley.com/cubilia.jsp
Second Cup,1122 Sainte-Catherine Rue W,Montreal,QC,3.5,(682) 3176776,3.42,0,1,1,1,0,Peppermint Mocha,http://dummyimage.com/190x208.bmp/dddddd/000000,http://ca.gov/nec/sem/duis/aliquam/convallis/nunc.jpg
Dunkin Donuts,5143 W Olive Ave,Glendale,AZ,1.5,(137) 2101272,2.83,0,0,1,0,1,Chai Tea Latte,http://dummyimage.com/214x218.png/dddddd/000000,http://apache.org/pellentesque.json
Coffee Time Donuts,839 Queen Street W,Toronto,ON,3.5,(551) 1273902,2.71,1,1,0,1,0,Vanilla Cappuccino,http://dummyimage.com/212x238.jpg/cc0000/ffffff,https://archive.org/scelerisque/quam/turpis/adipiscing/lorem/vitae/mattis.png
Tim Horton,30 Eglinton Avenue W,Mississauga,ON,3,(994) 6888202,1.84,1,1,1,0,0,Peppermint Mocha,http://dummyimage.com/169x179.jpg/dddddd/000000,http://jugem.jp/sed/tincidunt/eu.js
Caffeine,154 Dundas Street,Edinburgh,EDH,4.5,(669) 5490479,2.25,1,0,0,0,0,Chai Tea Latte,http://dummyimage.com/205x236.bmp/dddddd/000000,https://elegantthemes.com/cursus/id/turpis/integer/aliquet/massa.jpg
Cairngorm Coffee,1 Melville Place,Edinburgh,EDH,4,(555) 9457193,2.39,1,0,1,1,1,Chai Tea Latte,http://dummyimage.com/201x116.bmp/ff4444/ffffff,http://drupal.org/molestie/nibh.js
Dunkin Donuts,6295 S Rainbow Blvd,Las Vegas,NV,2.5,(682) 1818801,1.15,0,1,1,1,0,Nitro Cold Brew,http://dummyimage.com/217x208.jpg/dddddd/000000,https://php.net/non/mi/integer.aspx
Dunkin Donuts,102 N Central Ave,Phoenix,AZ,3,(374) 2564008,2.18,1,0,0,1,0,Nitro Cold Brew,http://dummyimage.com/182x238.png/dddddd/000000,http://webmd.com/id/justo/sit/amet/sapien.aspx
Dunkin Donuts,2165 N Chester St,Gastonia,NC,2,(449) 6255908,4.74,1,0,0,1,0,Nitro Cold Brew,http://dummyimage.com/208x147.png/cc0000/ffffff,https://ning.com/morbi.json
Dunkin Donuts,4959 Richmond Rd,Warrensville Heights,OH,3,(678) 7107510,4.63,0,1,1,1,0,Chai Tea Latte,http://dummyimage.com/233x147.jpg/ff4444/ffffff,https://miibeian.gov.cn/risus/praesent/lectus/vestibulum.xml
Sumach Espresso,118 Sumach Street,Toronto,ON,4.5,(320) 7976362,4.05,1,0,0,0,1,Nitro Cold Brew,http://dummyimage.com/190x147.png/5fa2dd/ffffff,https://posterous.com/suspendisse.js
Pourquoi Pas Espresso Bar,1447 Rue Amherst,Montreal,QC,4.5,(445) 4027314,3.44,0,0,0,1,0,Peppermint Mocha,http://dummyimage.com/197x242.jpg/cc0000/ffffff,http://wufoo.com/sed/lacus.json
Cinderbox Cafe,55 Bridge Street,Chester,CHE,4,(239) 5923639,1.46,0,1,1,1,1,Chai Tea Latte,http://dummyimage.com/217x147.png/cc0000/ffffff,http://statcounter.com/ipsum/integer/a/nibh.xml
Green Grotto,3920 Grand Park Drive,Mississauga,ON,3,(655) 2956183,2.56,0,0,1,1,0,Peppermint Mocha,http://dummyimage.com/126x228.jpg/dddddd/000000,http://elpais.com/consequat/lectus/in.png
Starbucks,604 Danforth Ave,Toronto,ON,3,(326) 8359367,1.47,1,1,0,0,1,Vanilla Cappuccino,http://dummyimage.com/104x135.png/dddddd/000000,https://npr.org/odio.jsp
Starbucks,2000 E Edgerton Rd,Broadview Heights,OH,3,(810) 5728100,4.06,1,0,0,0,1,Vanilla Cappuccino,http://dummyimage.com/124x215.png/dddddd/000000,http://slashdot.org/aliquam/lacus.json
Zekes Coffee,6015 Penn Ave,Pittsburgh,PA,4.5,(801) 7567359,3.63,1,1,1,1,1,Vanilla Cappuccino,http://dummyimage.com/191x148.jpg/cc0000/ffffff,http://house.gov/viverra.aspx
Tim Hortons,1493 Finch Avenue W,North York,ON,3,(221) 5658254,1.06,0,1,1,1,0,Chai Tea Latte,http://dummyimage.com/103x165.jpg/cc0000/ffffff,http://economist.com/nunc/proin/at/turpis/a/pede/posuere.json
Weather & Coffee,"3607 East Bell Road, Ste., #1",Phoenix,AZ,4.5,(281) 5264847,4.73,1,1,0,1,1,Nitro Cold Brew,http://dummyimage.com/201x165.jpg/5fa2dd/ffffff,https://spotify.com/pede/venenatis/non.jpg
Dunkin Donuts,3481 S Durango Dr,Las Vegas,NV,2,(625) 9821865,4.91,0,1,1,1,1,Vanilla Cappuccino,http://dummyimage.com/166x131.jpg/dddddd/000000,https://nba.com/sociis/natoque/penatibus/et.jpg
Oscar Coffee & Espresso Bar,2377 Queen Street E,Toronto,ON,4,(256) 5340043,4.12,0,0,1,0,1,Vanilla Cappuccino,http://dummyimage.com/132x240.bmp/cc0000/ffffff,https://yahoo.co.jp/aenean/lectus/pellentesque/eget/nunc.html
DAVIDsTEA,6310 Silver Dart Drive,Mississauga,ON,4.5,(791) 9078221,2.16,1,1,0,1,0,Chai Tea Latte,http://dummyimage.com/221x190.png/5fa2dd/ffffff,http://statcounter.com/luctus/et/ultrices/posuere/cubilia/curae.png
Teazone,"16 Vogell Road, Unit B",Richmond Hill,ON,2,(684) 1874693,2.96,1,0,0,1,1,Nitro Cold Brew,http://dummyimage.com/115x140.bmp/dddddd/000000,https://bandcamp.com/amet/diam.aspx
Wallace Espresso,188 Wallace Avenue,Toronto,ON,5,(942) 6658003,3.07,0,0,1,1,0,Nitro Cold Brew,http://dummyimage.com/144x243.jpg/ff4444/ffffff,http://berkeley.edu/sed/interdum/venenatis/turpis.png
Dunkin Donuts,53 W Garfield Rd,Aurora,OH,3,(204) 5519598,2.21,1,1,0,0,1,Vanilla Cappuccino,http://dummyimage.com/239x148.bmp/ff4444/ffffff,https://shop-pro.jp/nulla/quisque/arcu.json
Krispy Kreme Doughnuts,6626 E Superstition Springs Blvd,Mesa,AZ,3.5,(329) 8355871,1.56,0,0,0,0,0,Chai Tea Latte,http://dummyimage.com/234x241.png/cc0000/ffffff,http://chronoengine.com/eget/vulputate.js
Caf e Bar Bliss,Waiblinger Str. 12,Stuttgart,BW,4,(738) 1391745,2.59,0,1,0,0,0,Peppermint Mocha,http://dummyimage.com/207x148.jpg/5fa2dd/ffffff,https://csmonitor.com/sit/amet/nunc/viverra/dapibus/nulla/suscipit.jpg
Balzacs Coffee Roastery,43 Hanna Avenue,Toronto,ON,3.5,(647) 2366145,1.25,1,0,0,0,1,Vanilla Cappuccino,http://dummyimage.com/109x106.jpg/cc0000/ffffff,http://tmall.com/quam/sollicitudin/vitae.png
Als Donuts,"1220 E Harmon Ave, Ste D",Las Vegas,NV,3.5,(918) 8971118,3.39,0,0,0,1,1,Chai Tea Latte,http://dummyimage.com/188x107.bmp/dddddd/000000,http://weather.com/at.jsp
Dunkin Donuts,1601A W Morehead St,Charlotte,NC,3,(796) 7317531,1.25,0,0,1,1,0,Peppermint Mocha,http://dummyimage.com/144x208.jpg/dddddd/000000,http://newsvine.com/ultrices/enim/lorem/ipsum/dolor/sit.js
Tim Hortons,150 Dupont Street,Toronto,ON,1.5,(345) 4683877,4.01,0,0,0,0,0,Vanilla Cappuccino,http://dummyimage.com/119x126.jpg/dddddd/000000,https://house.gov/lacus/at/velit/vivamus.json
Le Baobab,"4800, rue Wellington",Verdun,QC,4,(722) 6478441,2.75,1,0,1,0,1,Vanilla Cappuccino,http://dummyimage.com/162x166.bmp/cc0000/ffffff,http://t.co/ligula/suspendisse/ornare.jpg
Dunkin Donuts,"5861 W Craig Rd, Ste 101",Las Vegas,NV,2.5,(451) 9149131,4.17,1,0,1,0,0,Peppermint Mocha,http://dummyimage.com/144x207.bmp/ff4444/ffffff,http://opensource.org/accumsan/tortor/quis/turpis/sed.aspx
Caf e Martin,2016 Boulevard Saint-Laurent,Montreal,QC,4,(255) 6768803,3.57,0,0,0,0,1,Peppermint Mocha,http://dummyimage.com/115x186.png/5fa2dd/ffffff,https://skyrock.com/viverra/pede/ac/diam/cras/pellentesque.xml
Dunkin Donuts,E Ray Rd,Gilbert,AZ,2,(762) 3133111,1.42,1,0,0,0,0,Chai Tea Latte,http://dummyimage.com/176x165.jpg/cc0000/ffffff,https://elegantthemes.com/sagittis/sapien/cum/sociis.js
Dunkin Donuts,"17609 Detroit Ave, Unit 1",Lakewood,OH,2.5,(651) 5406933,3.23,1,0,1,1,0,Peppermint Mocha,http://dummyimage.com/180x196.bmp/ff4444/ffffff,https://sun.com/platea/dictumst/aliquam/augue.jpg
Starbucks,"100 Hazel Ln, Ste 160",Sewickley,PA,4,(286) 2860774,2.79,1,1,1,0,0,Chai Tea Latte,http://dummyimage.com/201x122.jpg/5fa2dd/ffffff,http://ibm.com/eleifend.js
Flair,Neuer Markt 1,Leinfelden Echterdingen,BW,4,(189) 4726445,4.65,1,1,0,1,1,Nitro Cold Brew,http://dummyimage.com/214x163.bmp/ff4444/ffffff,http://twitter.com/id/turpis.html
DAVIDsTEA,1 Promenade Circle,Thornhill,ON,4,(222) 3004972,3.12,0,1,0,1,0,Nitro Cold Brew,http://dummyimage.com/195x111.bmp/ff4444/ffffff,https://networksolutions.com/vivamus/tortor.json
Starbucks,4805 Sharon Rd,Charlotte,NC,3.5,(870) 3483358,1.35,1,0,1,1,1,Vanilla Cappuccino,http://dummyimage.com/200x232.png/ff4444/ffffff,http://google.com/morbi/a/ipsum/integer/a/nibh/in.jpg
Caf e Al eatoire,1964 rue Notre-Dame ouest,Montreal,QC,5,(772) 2353977,1.18,1,1,0,1,1,Vanilla Cappuccino,http://dummyimage.com/126x168.jpg/cc0000/ffffff,https://plala.or.jp/a/suscipit/nulla/elit/ac/nulla.jpg
Sunrise Donuts,"725 S Estrella Pkwy, Ste 125",Goodyear,AZ,4.5,(433) 2226367,4.07,0,1,0,1,0,Nitro Cold Brew,http://dummyimage.com/194x188.bmp/5fa2dd/ffffff,http://webnode.com/non/mauris/morbi/non.jsp
Dunkin Donuts,3137 E Cactus Rd,Phoenix,AZ,2.5,(107) 2277317,2.39,0,0,0,1,0,Vanilla Cappuccino,http://dummyimage.com/198x191.bmp/ff4444/ffffff,https://chicagotribune.com/sit/amet/diam/in.png
Coffee Time,1471 Eglinton Ave W,Toronto,ON,2,(397) 9102861,3.67,1,0,1,0,0,Vanilla Cappuccino,http://dummyimage.com/222x199.jpg/5fa2dd/ffffff,http://free.fr/mus/etiam/vel/augue/vestibulum/rutrum.js
Dunkin Donuts,"739 S Gammon Rd, Ste 100",Madison,WI,2.5,(119) 9681568,3.22,1,0,1,0,0,Chai Tea Latte,http://dummyimage.com/227x142.jpg/dddddd/000000,https://dion.ne.jp/ut/rhoncus.png
Cherubini Coffee Co,"1740 E Broadway, Ste 101",Tempe,AZ,4,(462) 3401388,1.1,0,0,1,1,0,Vanilla Cappuccino,http://dummyimage.com/197x183.jpg/ff4444/ffffff,http://skype.com/cras/pellentesque/volutpat/dui.jpg
La Notre Coffee & Donuts,1277 York Mills Road,North York,ON,4.5,(376) 4718396,2.4,1,0,1,1,1,Peppermint Mocha,http://dummyimage.com/135x109.bmp/dddddd/000000,http://psu.edu/sem/mauris/laoreet/ut/rhoncus/aliquet/pulvinar.jpg
Van Houtte,2020 Rue Stanley,Montreal,QC,2.5,(444) 5436726,1.97,0,0,0,0,0,Vanilla Cappuccino,http://dummyimage.com/208x136.bmp/5fa2dd/ffffff,http://about.com/vulputate/luctus.aspx
Coffee Culture Caf e & Eatery,1 Holland Street W,Bradford West Gwillimbury,ON,4.5,(972) 4258621,1.74,0,1,0,0,0,Nitro Cold Brew,http://dummyimage.com/144x151.bmp/ff4444/ffffff,http://businessinsider.com/accumsan/tortor/quis.html
Cafe Jardin,25 Huntriss Row,Scarborough,NYK,4.5,(442) 8866537,2.64,0,0,0,0,0,Nitro Cold Brew,http://dummyimage.com/248x161.png/5fa2dd/ffffff,https://simplemachines.org/vestibulum/eget/vulputate.jsp
Tim Hortons,12 Queens Quay W,Toronto,ON,3,(656) 5213242,4.53,0,0,1,1,0,Chai Tea Latte,http://dummyimage.com/122x126.png/5fa2dd/ffffff,http://whitehouse.gov/purus/sit.jsp
Phoenix Coffee,826 W St Clair Ave,Cleveland,OH,4.5,(192) 6699852,2.16,1,1,1,0,1,Vanilla Cappuccino,http://dummyimage.com/196x238.bmp/dddddd/000000,https://nytimes.com/vestibulum/sagittis/sapien/cum/sociis.json
Holanka Bar im Buchhaus Wittwer,Königstr. 32,Stuttgart,BW,5,(250) 4163616,4.34,0,1,1,0,0,Peppermint Mocha,http://dummyimage.com/186x107.jpg/ff4444/ffffff,https://is.gd/vestibulum.xml
Dunkin Donuts,15091 S Komatke Ln,Laveen,AZ,3,(764) 3812786,2.89,1,1,0,1,0,Nitro Cold Brew,http://dummyimage.com/196x199.jpg/cc0000/ffffff,http://live.com/nec/euismod/scelerisque/quam/turpis/adipiscing/lorem.jpg
Starbucks,1984 Queen Street E,Toronto,ON,3.5,(226) 2716382,4.88,0,1,1,1,0,Nitro Cold Brew,http://dummyimage.com/163x202.png/dddddd/000000,http://wix.com/nisl.json
Aroma Espresso Bar,1800 Sheppard Avenue E,Toronto,ON,3,(732) 2266093,1.37,1,1,0,0,1,Chai Tea Latte,http://dummyimage.com/245x228.bmp/5fa2dd/ffffff,https://utexas.edu/donec/semper/sapien/a/libero/nam.json
Crazy Mocha Coffee,5607 Baum Blvd,Pittsburgh,PA,3.5,(600) 1004035,1.13,1,1,1,1,0,Peppermint Mocha,http://dummyimage.com/178x152.jpg/ff4444/ffffff,https://psu.edu/rutrum/nulla/tellus/in.png
Balzacs Coffee Roastery,789 Yonge Street,Toronto,ON,3.5,(755) 4683197,4.97,0,0,0,0,0,Chai Tea Latte,http://dummyimage.com/235x132.png/cc0000/ffffff,https://blogtalkradio.com/etiam/faucibus.js
Starbucks,4747 E Greenway Rd,Scottsdale,AZ,4,(399) 3519933,4.82,0,0,1,1,0,Peppermint Mocha,http://dummyimage.com/187x221.png/ff4444/ffffff,https://weebly.com/vel/ipsum/praesent.html
Paolos Machine Expresso,4603 Boulevard Saint Laurent,Montreal,QC,4,(359) 5329058,2.55,0,0,1,1,0,Nitro Cold Brew,http://dummyimage.com/219x222.bmp/ff4444/ffffff,http://tripod.com/in/ante.xml
Up The Junction,127 Great Junction Street,Edinburgh,EDH,4.5,(671) 5887425,4.25,1,0,1,0,1,Peppermint Mocha,http://dummyimage.com/242x143.png/ff4444/ffffff,https://answers.com/quam/suspendisse/potenti/nullam.xml
Dunkin Donuts,709 S Kings Dr,Charlotte,NC,2.5,(924) 5029795,3.55,1,0,0,1,0,Nitro Cold Brew,http://dummyimage.com/128x206.bmp/dddddd/000000,http://globo.com/dapibus/at/diam/nam/tristique/tortor.aspx
Dunkin Donuts,22200 Lake Shore Blvd,Euclid,OH,1.5,(820) 7770648,2.99,0,1,0,1,1,Peppermint Mocha,http://dummyimage.com/125x221.bmp/dddddd/000000,https://usda.gov/ut/nunc.js
Dough Baby Bakery,511 State St,Madison,WI,4.5,(767) 8546121,1.84,1,0,1,0,1,Vanilla Cappuccino,http://dummyimage.com/144x242.png/dddddd/000000,https://businesswire.com/parturient.aspx
Krispy Kreme Doughnuts,7055 E Shea Blvd,Scottsdale,AZ,3,(881) 4846376,1.98,1,1,0,0,0,Chai Tea Latte,http://dummyimage.com/113x239.jpg/dddddd/000000,https://baidu.com/rhoncus/aliquet/pulvinar.xml
DAVIDsTEA,424 Bloor Street,Toronto,ON,4,(270) 6061916,4.2,0,1,0,1,1,Vanilla Cappuccino,http://dummyimage.com/136x250.png/dddddd/000000,http://tripadvisor.com/non/quam/nec.jpg
Supercoffee,1148 Weston Road,Toronto,ON,4.5,(374) 7685122,3.49,0,1,0,1,1,Vanilla Cappuccino,http://dummyimage.com/201x124.png/5fa2dd/ffffff,https://kickstarter.com/vulputate/justo/in/blandit/ultrices.json
Wellington Coffee,33A George Street,Edinburgh,EDH,4,(442) 5867834,4.51,0,0,0,1,1,Nitro Cold Brew,http://dummyimage.com/137x151.png/dddddd/000000,http://foxnews.com/dapibus/at/diam.js
Parkcafe,Anlagen 2,Ludwigsburg,BW,1,(938) 4904005,4.27,0,1,0,1,0,Chai Tea Latte,http://dummyimage.com/183x203.bmp/cc0000/ffffff,https://patch.com/elit/proin/risus/praesent.html
Fuel Coffee Bar,12209 Mayfield Rd,Cleveland,OH,4,(264) 7477950,1.52,1,0,1,0,1,Vanilla Cappuccino,http://dummyimage.com/114x240.png/cc0000/ffffff,https://miitbeian.gov.cn/leo.xml
Coletti And Co,55 Lothian Road,Edinburgh,EDH,4.5,(495) 5434253,3.47,1,1,1,1,0,Vanilla Cappuccino,http://dummyimage.com/154x102.png/5fa2dd/ffffff,https://livejournal.com/mi/sit.jsp
Le Petit Caf e de La Taverne Jarry,552 Rue Jarry E,Montreal,QC,3.5,(239) 8798639,2.61,1,1,1,0,0,Vanilla Cappuccino,http://dummyimage.com/133x112.jpg/ff4444/ffffff,https://toplist.cz/curabitur/at/ipsum/ac/tellus/semper/interdum.jsp
Cha Me Cha,"8333 Kennedy Road, Suite 1078",Markham,ON,3,(757) 7892142,4.45,0,0,0,1,1,Chai Tea Latte,http://dummyimage.com/174x244.bmp/ff4444/ffffff,http://ihg.com/ultrices/posuere/cubilia/curae/duis/faucibus/accumsan.html
Dunkin Donuts,1835 S Greenfield Rd,Mesa,AZ,1.5,(110) 1726450,4.11,0,1,0,0,1,Vanilla Cappuccino,http://dummyimage.com/205x231.png/ff4444/ffffff,http://earthlink.net/mus/etiam/vel/augue/vestibulum/rutrum.js
Covernotes,222 Main Street,Newmarket,ON,3.5,(677) 7092027,1.14,1,0,1,0,1,Peppermint Mocha,http://dummyimage.com/226x169.jpg/5fa2dd/ffffff,http://1688.com/rhoncus/mauris/enim/leo/rhoncus/sed/vestibulum.jsp
Dunkin Donuts,10175 Weddington Rd Ext,Concord,NC,3.5,(374) 4070767,4.11,0,1,1,1,1,Nitro Cold Brew,http://dummyimage.com/200x136.jpg/5fa2dd/ffffff,http://live.com/tincidunt/nulla/mollis.aspx
Dunkin Donuts,2105 S Alma School Rd,Chandler,AZ,2.5,(745) 6020369,4.57,0,0,1,0,1,Chai Tea Latte,http://dummyimage.com/170x115.png/cc0000/ffffff,http://mtv.com/vitae/nisi/nam/ultrices.js
Dunkin Donuts,13953 W Waddell Rd,Surprise,AZ,2,(622) 5896968,2.92,0,0,1,0,1,Nitro Cold Brew,http://dummyimage.com/134x234.bmp/cc0000/ffffff,http://yellowpages.com/sed/interdum/venenatis/turpis/enim/blandit.js
Tim Hortons,210 Wanless Drive,Brampton,ON,2.5,(924) 4583689,3.22,0,1,1,0,0,Peppermint Mocha,http://dummyimage.com/178x203.bmp/ff4444/ffffff,http://vk.com/interdum/mauris/ullamcorper/purus/sit/amet/nulla.js
Chess House Cafe,"6430 W Lake Mead, Ste 160",Las Vegas,NV,4.5,(903) 4453052,1.28,1,1,0,0,0,Chai Tea Latte,http://dummyimage.com/239x155.bmp/cc0000/ffffff,http://dropbox.com/luctus/tincidunt/nulla/mollis/molestie.jpg
Dunkin Donuts,"9940 W Happy Valley Rd, Ste 1080",Peoria,AZ,2,(647) 4974419,3.66,0,1,0,1,1,Peppermint Mocha,http://dummyimage.com/106x166.bmp/ff4444/ffffff,https://aboutads.info/purus/eu/magna/vulputate/luctus.json
Bobo Tea & Juice,62 Fort York Boulevard,Toronto,ON,4.5,(632) 1795320,1.39,0,0,1,0,0,Vanilla Cappuccino,http://dummyimage.com/109x204.jpg/5fa2dd/ffffff,https://phoca.cz/duis/consequat.aspx
Dunkin Donuts,8334 Pineville Matthews Rd,Pineville,NC,3.5,(758) 1423767,1.28,1,1,1,1,0,Peppermint Mocha,http://dummyimage.com/124x225.png/dddddd/000000,http://163.com/amet/turpis/elementum.js
DAVIDsTEA,2901 Bayview Avenue N,Toronto,ON,3.5,(556) 6814312,4.24,0,1,0,1,0,Nitro Cold Brew,http://dummyimage.com/163x131.png/5fa2dd/ffffff,http://google.nl/lorem/quisque/ut/erat/curabitur/gravida/nisi.png
Dunkin Donuts,6317 Pearl Rd,Parma Heights,OH,2,(482) 9133287,2.21,1,0,0,1,0,Peppermint Mocha,http://dummyimage.com/181x167.bmp/5fa2dd/ffffff,https://wunderground.com/suspendisse/potenti/cras.jpg
Starbucks,2153 Ste-Catherine O,Montreal,QC,4,(828) 2889993,3.08,1,1,1,1,0,Nitro Cold Brew,http://dummyimage.com/217x215.bmp/cc0000/ffffff,http://washington.edu/at/turpis/a/pede/posuere.png
Starbucks,2630 Yonge Street,Toronto,ON,4,(214) 6401097,1.74,0,0,1,1,1,Peppermint Mocha,http://dummyimage.com/183x218.jpg/ff4444/ffffff,http://salon.com/amet/lobortis/sapien/sapien/non/mi/integer.js
Marvel Coffee Company,6 Donlands Avenue,Toronto,ON,4,(801) 3918010,2.05,0,0,1,0,0,Chai Tea Latte,http://dummyimage.com/122x203.bmp/ff4444/ffffff,http://oracle.com/amet/eleifend/pede/libero/quis/orci.xml
Second Cup,794 Mount Pleasant Road,Toronto,ON,3,(716) 5618439,4.6,1,1,1,1,1,Peppermint Mocha,http://dummyimage.com/235x162.png/dddddd/000000,https://chicagotribune.com/amet/lobortis/sapien.png
Cool Beans Cafe,103 W Liberty St,Medina,OH,4,(992) 1557756,4.83,1,0,1,0,1,Peppermint Mocha,http://dummyimage.com/108x167.bmp/ff4444/ffffff,https://mapy.cz/sed/augue/aliquam.xml
Frankly Good Coffee,240 S Water St,Henderson,NV,3.5,(413) 2835688,3.83,0,0,0,1,1,Vanilla Cappuccino,http://dummyimage.com/205x222.bmp/dddddd/000000,http://patch.com/arcu/sed/augue/aliquam/erat/volutpat/in.json
Caffe Costadoro,"505 7 Hwy,",Richmond Hill,ON,2.5,(602) 7254078,2.06,1,0,0,0,1,Vanilla Cappuccino,http://dummyimage.com/223x158.png/5fa2dd/ffffff,http://dailymotion.com/morbi/vestibulum.png
Chachago,"505 Highway 7 E, Unit 1",Markham,ON,3.5,(335) 5166169,3.32,1,0,1,1,0,Vanilla Cappuccino,http://dummyimage.com/139x158.jpg/dddddd/000000,https://t.co/justo/sollicitudin/ut/suscipit/a/feugiat/et.aspx
Starbucks,3252 Yonge Street,Toronto,ON,2.5,(707) 7394598,1.28,1,0,1,0,1,Chai Tea Latte,http://dummyimage.com/174x151.png/dddddd/000000,https://blinklist.com/sit/amet.json
Dunkin Donuts,411 Smithfield St,Pittsburgh,PA,4.5,(527) 3386634,4.33,1,1,0,0,0,Vanilla Cappuccino,http://dummyimage.com/193x195.png/5fa2dd/ffffff,https://seesaa.net/nulla/tempus/vivamus.xml
Cast Iron Waffles,9604 Longstone Ln,Charlotte,NC,4,(501) 3902530,1.35,0,1,0,1,1,Vanilla Cappuccino,http://dummyimage.com/172x196.jpg/5fa2dd/ffffff,http://smh.com.au/in/sagittis/dui/vel.jpg
Tim Hortons,1257 Rue Peel,Montreal,QC,2.5,(949) 1436397,3.96,0,0,1,1,1,Vanilla Cappuccino,http://dummyimage.com/158x109.png/cc0000/ffffff,http://sohu.com/metus/vitae/ipsum/aliquam/non.js
Royal Coffee Bar,"2502 E Camelback Rd, Ste 193",Phoenix,AZ,4.5,(445) 4238053,4.42,1,1,1,0,1,Nitro Cold Brew,http://dummyimage.com/218x208.jpg/5fa2dd/ffffff,http://paypal.com/ipsum/praesent/blandit/lacinia.jpg
Dunkin Donuts,402 S Century Blvd,Rantoul,IL,4.5,(733) 6733981,1.04,0,0,1,1,1,Vanilla Cappuccino,http://dummyimage.com/184x178.jpg/ff4444/ffffff,https://columbia.edu/ut/dolor/morbi/vel/lectus/in/quam.json
Subway,19 Inglis Street,Inverness,HLD,3.5,(606) 8407879,4.31,1,1,0,0,1,Chai Tea Latte,http://dummyimage.com/238x211.jpg/ff4444/ffffff,https://epa.gov/eget/vulputate.xml
Dunkin Donuts,"2131 E Camelback Rd, Ste 100",Phoenix,AZ,4,(558) 8770859,4.41,1,1,0,1,0,Vanilla Cappuccino,http://dummyimage.com/200x211.bmp/dddddd/000000,http://guardian.co.uk/sollicitudin.xml
Coco Donuts,"7965 S Rainbow Blvd, Ste 150",Las Vegas,NV,4,(381) 7198058,4.03,1,1,1,0,1,Peppermint Mocha,http://dummyimage.com/156x242.jpg/cc0000/ffffff,https://google.pl/non/mauris.jpg
Dunkin Donuts,"2051 W Chandler Blvd, Ste 10",Chandler,AZ,3,(419) 5186029,2.85,0,1,0,0,0,Peppermint Mocha,http://dummyimage.com/100x200.png/cc0000/ffffff,https://blogtalkradio.com/ac/nibh/fusce/lacus/purus.html
Dunkin Donuts,2021 S Alma School Rd,Chandler,AZ,2.5,(474) 3564576,3.78,0,1,0,1,0,Chai Tea Latte,http://dummyimage.com/207x227.jpg/cc0000/ffffff,https://seesaa.net/suscipit/nulla/elit.jsp
Dunkin Donuts,3739 E Bell Rd,Phoenix,AZ,1.5,(462) 2032026,4.2,1,0,0,1,1,Nitro Cold Brew,http://dummyimage.com/132x235.jpg/cc0000/ffffff,https://wikispaces.com/aenean/fermentum/donec/ut.html
Nervous Dog Coffee Bar and Roaster,26300 Cedar Rd,Beachwood,OH,4.5,(267) 3733768,3.53,0,1,1,0,0,Vanilla Cappuccino,http://dummyimage.com/235x162.bmp/ff4444/ffffff,http://comcast.net/molestie/hendrerit/at.jsp
Dunkin Donuts,14009 Pearl Rd,Strongsville,OH,3.5,(838) 1926452,3.98,1,0,1,1,0,Chai Tea Latte,http://dummyimage.com/245x206.jpg/ff4444/ffffff,http://privacy.gov.au/in/consequat/ut/nulla/sed.html
Phoenix Coffee Company,1854 Coventry Rd,Cleveland Heights,OH,4,(767) 8625096,2.26,1,1,0,1,0,Chai Tea Latte,http://dummyimage.com/230x126.png/cc0000/ffffff,http://bloglovin.com/amet/nulla/quisque.js
Dunkin Donuts,"1335 W. University Dr, Suite 11",Tempe,AZ,3,(159) 9596693,2.04,1,0,1,1,1,Vanilla Cappuccino,http://dummyimage.com/125x227.jpg/dddddd/000000,https://photobucket.com/curabitur/gravida/nisi/at/nibh/in/hac.aspx
Tim Hortons,"Toronto Pearson Airport, Gate F66, Terminal 1",Mississauga,ON,2.5,(201) 9646818,1.66,0,0,1,1,1,Nitro Cold Brew,http://dummyimage.com/113x118.jpg/5fa2dd/ffffff,https://usatoday.com/vel/accumsan/tellus/nisi.js
TK Cafe,525 N Tryon St,Charlotte,NC,4,(581) 2991750,3.57,0,1,1,1,0,Vanilla Cappuccino,http://dummyimage.com/165x211.jpg/dddddd/000000,http://scribd.com/fusce/consequat/nulla/nisl/nunc/nisl.html
Infuse Cafe,354 Yonge St,Toronto,ON,4.5,(126) 7815413,1.88,1,1,1,1,0,Nitro Cold Brew,http://dummyimage.com/110x161.bmp/5fa2dd/ffffff,https://usda.gov/integer/tincidunt/ante/vel.jsp
Summit Coffee,128 S Main St,Davidson,NC,4.5,(727) 4764885,4.23,1,1,1,1,0,Vanilla Cappuccino,http://dummyimage.com/142x170.png/5fa2dd/ffffff,https://berkeley.edu/accumsan/tortor/quis/turpis/sed/ante/vivamus.jsp
The Purple Pig cafe,12 Leven Street,Edinburgh,EDH,3,(512) 7204088,2.71,1,0,1,0,1,Chai Tea Latte,http://dummyimage.com/190x166.jpg/5fa2dd/ffffff,http://yellowbook.com/sit/amet/justo/morbi.xml
Perc Up Coffee Cafe,2325 N 7th St,Phoenix,AZ,4,(808) 3562606,1.06,0,0,1,1,0,Chai Tea Latte,http://dummyimage.com/127x160.bmp/ff4444/ffffff,https://ted.com/mattis.json
Phoenix Coffee Bar,"3000 Bridge Ave, Ste A",Cleveland,OH,4.5,(128) 1799842,2.46,0,0,0,0,1,Peppermint Mocha,http://dummyimage.com/101x168.jpg/dddddd/000000,https://ning.com/purus/phasellus/in/felis/donec/semper.aspx